{"type": "FeatureCollection", "features": [{"type": "Feature", "properties": {"name": "synthetic_glacial_lake_7318"}, "geometry": {"type": "Point", "coordinates": [88.6637875, 27.4223375]}}, {"type": "Feature", "properties": {"name": "synthetic_glacial_lake_8000"}, "geometry": {"type": "Point", "coordinates": [88.2080875, 27.1031125]}}, {"type": "Feature", "properties": {"name": "synthetic_glacial_lake_8063"}, "geometry": {"type": "Point", "coordinates": [88.2383125, 27.0974625]}}, {"type": "Feature", "properties": {"name": "synthetic_glacial_lake_8539"}, "geometry": {"type": "Point", "coordinates": [88.2801625, 27.0692125]}}]}