{"type": "FeatureCollection", "features": [{"type": "Feature", "properties": {"fault_type": "synthetic", "id": 0}, "geometry": {"type": "LineString", "coordinates": [[88.563437737501, 27.882662875363742], [88.93, 28.13]]}}, {"type": "Feature", "properties": {"fault_type": "synthetic", "id": 1}, "geometry": {"type": "LineString", "coordinates": [[88.91215395306875, 27.712707289937512], [88.93, 28.072272888206257]]}}, {"type": "Feature", "properties": {"fault_type": "synthetic", "id": 2}, "geometry": {"type": "LineString", "coordinates": [[88.62866343197719, 28.0828410832634], [88.43189804261158, 27.713691577605623]]}}, {"type": "Feature", "properties": {"fault_type": "synthetic", "id": 3}, "geometry": {"type": "LineString", "coordinates": [[88.19482149082604, 28.121798039342348], [88.0, 27.35097571895687]]}}, {"type": "Feature", "properties": {"fault_type": "synthetic", "id": 4}, "geometry": {"type": "LineString", "coordinates": [[88.1718377109974, 27.250492781161768], [88.0, 27.985876028613674]]}}]}