{"type": "FeatureCollection", "features": [{"type": "Feature", "properties": {"catalog_id": "GAF_28", "catalog_name": "HimaTibetMap", "exposure_quality": "1", "fs_name": "Jiali fault", "reference": "Armijo, et al., 1986; 1989", "slip_type": "Dextral"}, "geometry": {"type": "LineString", "coordinates": [[92.57314770449115, 30.837296776726422], [92.89543168908745, 30.745215638270338], [93.21771567368374, 30.645461071609578], [93.4325716634146, 30.637787643404902], [93.56301994289407, 30.65313449981425], [93.68579479416884, 30.645461071609578], [93.80089621723896, 30.60709393058621], [93.93134449671841, 30.50733936392545], [94.1078333454259, 30.476645651106754], [94.39175018899883, 30.376891084445997], [94.59893275052502, 30.300156802399258], [94.7830950274372, 30.24644280496654], [94.95958387614469, 30.169708522919805], [95.17443986587556, 29.99321967421231], [95.30488814535501, 29.947179104984265], [95.51974413508587, 29.947179104984265]]}}, {"type": "Feature", "properties": {"catalog_id": "GAF_30", "catalog_name": "HimaTibetMap", "exposure_quality": "1", "slip_type": "Normal"}, "geometry": {"type": "LineString", "coordinates": [[84.00835522495152, 29.759469289562993], [83.95633586709573, 29.679333370344], [83.90984553931014, 29.500583932128656], [83.91650803012647, 29.433007239563075], [83.899547164382, 29.271781022382914], [83.87522438167531, 29.13529701005027], [83.83334586797271, 29.04011856981706], [83.77183680097198, 28.9123811714874], [83.72139222764838, 28.80102239641454], [83.67189943872711, 28.754384960700264], [83.62811735621983, 28.713458231399983], [83.58243170490789, 28.68585648373235], [83.59670847094287, 28.558317373819843]]}}, {"type": "Feature", "properties": {"catalog_id": "GAF_31", "catalog_name": "HimaTibetMap", "exposure_quality": "1", "slip_type": "Normal"}, "geometry": {"type": "LineString", "coordinates": [[85.65789848569125, 29.204388201939658], [85.64490367082838, 29.145945743641636], [85.62348852177591, 29.107398475347185], [85.6318116204909, 29.047867010737598], [85.6082599713386, 29.03934589058044], [85.58541714568263, 29.014599496119803], [85.5405075922897, 29.008736712937083], [85.50879850129489, 29.00032273008482], [85.4933101089477, 28.985137971266084], [85.54972523059517, 28.921324624691255], [85.56317813254576, 28.89556633569902], [85.55400826040567, 28.870880051367653], [85.51263852617588, 28.858124547465803], [85.48833386188902, 28.80004179133434], [85.47529042928885, 28.721781195733314], [85.48897483582938, 28.679451767858332], [85.50444133236729, 28.644949583273792], [85.51752836789936, 28.62115497321549], [85.53775378644892, 28.606878207180507], [85.56511758801597, 28.606878207180507]]}}, {"type": "Feature", "properties": {"catalog_id": "GAF_32", "catalog_name": "HimaTibetMap", "exposure_quality": "1", "slip_type": "Normal"}, "geometry": {"type": "LineString", "coordinates": [[90.15134527867265, 29.096407656444892], [90.0339543852711, 28.99206019564352], [89.96873722227025, 28.91379960004249], [89.91656349186955, 28.835539004441465], [89.87743319406904, 28.78336527404078], [89.8513463288687, 28.639887515438893], [89.8513463288687, 28.53554005463752], [89.90352005926938, 28.405105728635807], [89.96873722227025, 28.326845133034777]]}}, {"type": "Feature", "properties": {"catalog_id": "GAF_33", "catalog_name": "HimaTibetMap", "exposure_quality": "1", "slip_type": "Normal"}, "geometry": {"type": "LineString", "coordinates": [[92.06110628543476, 29.038814078907116], [92.06110628543476, 28.88229288770506], [92.02197598763425, 28.764901994303514], [91.95675882463338, 28.686641398702488], [91.89154166163253, 28.634467668301802], [91.85241136383202, 28.582293937901117], [91.80023763343134, 28.53012020750043], [91.80023763343134, 28.321425285897686], [91.80023763343134, 28.125773796895114], [91.80023763343134, 27.9953394708934], [91.80023763343134, 27.956209173092887], [91.85241136383202, 27.890992010092027]]}}, {"type": "Feature", "properties": {"catalog_id": "GAF_129", "catalog_name": "HimaTibetMap", "exposure_quality": "1", "slip_type": "Reverse"}, "geometry": {"type": "LineString", "coordinates": [[93.85675914269086, 25.536012770542342], [93.4328413542299, 24.859548214487603], [93.18029458663614, 24.19210318584693], [93.03598214801112, 23.668970595831265], [93.01794309318299, 22.839174073737453], [93.01794309318299, 22.018397079057706], [93.18931411405019, 21.215659139206085], [93.47793899130022, 20.476057891252903], [93.69440764923773, 20.106257267276312], [93.76656386855024, 19.87174955451067], [93.76656386855024, 19.862730027096607]]}}, {"type": "Feature", "properties": {"catalog_id": "GAF_145", "catalog_name": "HimaTibetMap", "exposure_quality": "1", "reference": "Murphy et al., 2010 EPSL", "slip_type": "Normal"}, "geometry": {"type": "LineString", "coordinates": [[85.60233916623972, 30.102925595102686], [85.60667022914834, 30.089932406376846], [85.60767207192775, 30.032201818305317], [85.57318428405769, 29.9474193397914], [85.60048711612149, 29.879162259631883], [85.62567375417049, 29.83498039467008], [85.64000437305594, 29.79725376344047], [85.64598248081664, 29.755867295347038], [85.6687161300474, 29.724343301747055], [85.69660273977046, 29.70464080574706], [85.7132572427995, 29.66686926854366], [85.71702934459779, 29.644775529439396], [85.74127857044392, 29.617293073480432]]}}, {"type": "Feature", "properties": {"catalog_id": "GAF_173", "catalog_name": "HimaTibetMap", "exposure_quality": "1", "reference": "Murphy et al., 2010 EPSL", "slip_type": "Normal"}, "geometry": {"type": "LineString", "coordinates": [[85.27054881020418, 29.8640070603041], [85.2450122850597, 29.944545331913595], [85.19786793094683, 30.037851866095327], [85.1212583555134, 30.087942742340257], [85.06032625947721, 30.10447526089045], [84.8957968350348, 30.216903700926103]]}}, {"type": "Feature", "properties": {"catalog_id": "GAF_198", "catalog_name": "HimaTibetMap", "exposure_quality": "1", "fs_name": "Tangra Yum Co Rift", "reference": "Dewane et al., 2006", "slip_type": "Normal"}, "geometry": {"type": "LineString", "coordinates": [[86.42067822329373, 30.149773664188082], [86.40131440392496, 30.1022442893738], [86.4153971816477, 30.052954567344177], [86.43300065380114, 30.001904498099208], [86.43631017708715, 29.982047358383163]]}}, {"type": "Feature", "properties": {"catalog_id": "GAF_199", "catalog_name": "HimaTibetMap", "exposure_quality": "1", "fs_name": "Tangra Yum Co Rift", "reference": "Dewane et al., 2006", "slip_type": "Normal"}, "geometry": {"type": "LineString", "coordinates": [[86.4443249198605, 29.91859630401781], [86.42738571747495, 29.895418222143558], [86.41445279702367, 29.86200817764443], [86.39059261560745, 29.856055009311696], [86.28665039561974, 29.842518985019936], [86.2216811621715, 29.80841331731694], [86.23968312876823, 29.732772148888053], [86.22478583363124, 29.67788737733074], [86.22400176546614, 29.620650401278116], [86.21459294748489, 29.586935470178624], [86.23027431078698, 29.55478867540934], [86.20975812692355, 29.51527602500569]]}}, {"type": "Feature", "properties": {"catalog_id": "GAF_200", "catalog_name": "HimaTibetMap", "exposure_quality": "1", "fs_name": "Tangra Yum Co Rift", "reference": "Dewane et al., 2006", "slip_type": "Normal"}, "geometry": {"type": "LineString", "coordinates": [[86.20975812692355, 29.51527602500569], [86.18871869803644, 29.503040176512446], [86.18950276620156, 29.422281155506685]]}}, {"type": "Feature", "properties": {"catalog_id": "GAF_201", "catalog_name": "HimaTibetMap", "exposure_quality": "1", "slip_type": "Normal"}, "geometry": {"type": "LineString", "coordinates": [[86.95978994851109, 30.152766229245458], [86.93523559741064, 30.133122748365093], [86.89398428756188, 30.103657527044547], [86.89201993947384, 30.054548824843636], [86.87139428454945, 30.008386644774777], [86.84968528392052, 29.955669456209815], [86.81070571774299, 29.921020952940903], [86.79282036102799, 29.85909619008401], [86.7554977473553, 29.798201399354877], [86.72408445957072, 29.765102688230805], [86.72311367810325, 29.762745076095527]]}}, {"type": "Feature", "properties": {"catalog_id": "GAF_202", "catalog_name": "HimaTibetMap", "exposure_quality": "1", "fs_name": "Pum Qu - Xainza Rift", "reference": "Hager et al., 2006", "slip_type": "Normal"}, "geometry": {"type": "LineString", "coordinates": [[88.47920220321704, 30.124364062010557], [88.43099147686296, 30.085560306652397], [88.40982579212213, 30.046756551294234], [88.40982579212213, 30.013832152808522], [88.39806707837724, 29.97855601157383], [88.3910118501303, 29.947983355837096], [88.38513249325786, 29.897420886734036], [88.3674944226405, 29.851561903128935], [88.3580874516446, 29.813934019145265], [88.34868048064867, 29.78453723478302], [88.3463287378997, 29.759843935918738], [88.31575608216296, 29.735150637054453], [88.30517323979255, 29.677532939704456], [88.30517323979255, 29.619915242354455], [88.31340433941398, 29.574056258749355], [88.31222846803949, 29.549362959885073]]}}, {"type": "Feature", "properties": {"catalog_id": "GAF_204", "catalog_name": "HimaTibetMap", "exposure_quality": "1", "slip_type": "Normal"}, "geometry": {"type": "LineString", "coordinates": [[90.39997542335065, 30.05988560060501], [90.38682292806533, 30.03733846583015], [90.37836775252475, 30.017609722902147], [90.36615472118837, 30.001638835769956], [90.3595784735457, 29.981910092841954], [90.3595784735457, 29.980031164944048]]}}, {"type": "Feature", "properties": {"catalog_id": "GAF_205", "catalog_name": "HimaTibetMap", "exposure_quality": "1", "slip_type": "Normal"}, "geometry": {"type": "LineString", "coordinates": [[90.41782523838076, 30.047672569268627], [90.40467274309542, 30.03733846583015], [90.39527810360589, 30.02230704264691], [90.38870185596323, 30.00633615551472], [90.37836775252475, 29.993183660229384], [90.37273096883104, 29.98754687653567]]}}, {"type": "Feature", "properties": {"catalog_id": "GAF_206", "catalog_name": "HimaTibetMap", "exposure_quality": "1", "slip_type": "Normal"}, "geometry": {"type": "LineString", "coordinates": [[90.42440148602343, 30.031701682136436], [90.4168857744318, 30.01385186710634], [90.40561220704437, 30.005396691565767], [90.3971570315038, 29.990365268382526], [90.39058078386114, 29.98754687653567]]}}, {"type": "Feature", "properties": {"catalog_id": "GAF_207", "catalog_name": "HimaTibetMap", "exposure_quality": "1", "slip_type": "Normal"}, "geometry": {"type": "LineString", "coordinates": [[90.36521525723941, 30.063643456400822], [90.31730259584285, 30.05143042506444], [90.27408725419103, 30.02982275423853], [90.2412060159777, 30.008215083412622], [90.22805352069236, 29.988486340484624]]}}, {"type": "Feature", "properties": {"catalog_id": "GAF_208", "catalog_name": "HimaTibetMap", "exposure_quality": "1", "slip_type": "Normal"}, "geometry": {"type": "LineString", "coordinates": [[90.27690564603789, 29.961711617939475], [90.28066350183369, 29.922254132083474], [90.28254242973159, 29.889372893870135], [90.29287653317007, 29.858370583554702], [90.29381599711903, 29.833005056932986], [90.3022711726596, 29.80763953031127], [90.30508956450646, 29.79260810712803]]}}, {"type": "Feature", "properties": {"catalog_id": "GAF_279", "catalog_name": "HimaTibetMap", "exposure_quality": "1", "fs_name": "Dauki Thrust", "reference": "Das, et al., 1995", "slip_type": "Reverse"}, "geometry": {"type": "LineString", "coordinates": [[89.75472168217885, 25.344236799017356], [90.21063164102578, 25.241657058276797], [90.46708099287717, 25.190367187906517], [90.90019545378176, 25.184668313420932], [91.1794403035755, 25.213162685848864], [91.61255476448008, 25.21886156033445], [92.06276584884142, 25.178969438935344], [92.33631182414959, 25.17327056444976], [92.53007355665953, 25.156173940993]]}}, {"type": "Feature", "properties": {"catalog_id": "GAF_280", "catalog_name": "HimaTibetMap", "exposure_quality": "1", "fs_name": "Naga Hills Thrust Belt", "reference": "Das, et al., 1995", "slip_type": "Reverse"}, "geometry": {"type": "LineString", "coordinates": [[92.25082870686579, 25.116281819593894], [92.42179494143338, 25.059293074738026], [92.7124375401983, 25.00230432988216], [92.96318801756411, 25.00230432988216], [93.2253362439011, 25.076389698194784], [93.42479685089664, 25.15047506650741]]}}, {"type": "Feature", "properties": {"catalog_id": "GAF_281", "catalog_name": "HimaTibetMap", "exposure_quality": "1", "fs_name": "Naga Hills Thrust Belt", "reference": "Das, et al., 1995", "slip_type": "Reverse"}, "geometry": {"type": "LineString", "coordinates": [[94.02317867188323, 25.914124247576016], [93.76103044554624, 25.794447883378698], [93.38490472949753, 25.59498727638317], [93.11135875418937, 25.429719916301156], [92.91759702167941, 25.298645803132665]]}}, {"type": "Feature", "properties": {"catalog_id": "GAF_282", "catalog_name": "HimaTibetMap", "exposure_quality": "1", "slip_type": "Reverse"}, "geometry": {"type": "LineString", "coordinates": [[94.31781048278803, 23.711509258896797], [94.4602823449277, 23.87107774449322], [94.52866883875474, 24.002151857661712], [94.52866883875474, 24.19021471568607], [94.62554970500972, 24.372578699224842], [94.64264632846647, 24.526448310335677], [94.69963507332234, 24.7714999132159], [94.80221481406289, 24.965261645725846], [95.00737429554401, 25.204614374120485], [95.11565291077017, 25.432569353543947], [95.4005966350495, 25.73460970128004], [95.57726174410267, 25.956865806217916], [95.63994936344413, 26.11643429181434]]}}, {"type": "Feature", "properties": {"catalog_id": "GAF_538", "catalog_name": "HimaTibetMap", "exposure_quality": "1", "fs_name": "Main Frontal Thrust", "net_slip_rate": "(15,10,21)", "reference": "Lave and Avouac, 2000, 2001; Lave, et al., 2005; Lillie and Yeats, 1991", "slip_type": "Reverse"}, "geometry": {"type": "LineString", "coordinates": [[81.79800103922706, 28.10081805631617], [81.93158295073106, 27.93640954984971], [82.1011292230246, 27.92099625236848], [82.2347111345286, 27.813103169999863], [82.35801751437845, 27.73089891676663], [82.50701272336367, 27.689796790150016], [82.74334995140921, 27.73603668259371], [82.9694116478006, 27.76686327755617], [83.14923345174829, 27.76686327755617], [83.48832599633536, 27.674383492668785], [83.7041121610726, 27.61786806857094], [83.86081401879844, 27.507406103288787], [83.98925816447536, 27.430339615882634], [84.14339113928767, 27.425201850055554], [84.24614645582922, 27.358410894303557], [84.41055496229568, 27.3481353626494], [84.5852390004163, 27.342997596822325], [84.70854538026614, 27.342997596822325]]}}, {"type": "Feature", "properties": {"catalog_id": "GAF_539", "catalog_name": "HimaTibetMap", "exposure_quality": "1", "fs_name": "Main Frontal Thrust", "net_slip_rate": "(15,10,21)", "reference": "Lave and Avouac, 2000, 2001; Lave, et al., 2005; Lillie and Yeats, 1991", "slip_type": "Reverse"}, "geometry": {"type": "LineString", "coordinates": [[84.5595501712809, 27.38923748926602], [84.74964750688275, 27.36868642595771], [84.95515813996583, 27.276206641070324], [85.09901558312399, 27.276206641070324], [85.32507727951537, 27.18886462201002], [85.6076544000046, 27.111798134603866], [85.7412363115086, 27.106660368776787], [85.97243577372706, 27.01931834971648], [86.15739534350183, 26.962802925618632]]}}, {"type": "Feature", "properties": {"catalog_id": "GAF_540", "catalog_name": "HimaTibetMap", "exposure_quality": "1", "fs_name": "Main Frontal Thrust", "net_slip_rate": "(15,10,21)", "reference": "Lave and Avouac, 2000, 2001; Lave, et al., 2005; Lillie and Yeats, 1991", "slip_type": "Reverse"}, "geometry": {"type": "LineString", "coordinates": [[86.05977779278737, 26.916563033174942], [86.17280864098306, 26.865185374904172], [86.2961150208329, 26.865185374904172], [86.41428363485568, 26.860047609077096], [86.55300331218675, 26.824083248287558]]}}, {"type": "Feature", "properties": {"catalog_id": "GAF_541", "catalog_name": "HimaTibetMap", "exposure_quality": "1", "fs_name": "Main Frontal Thrust", "net_slip_rate": "(15,10,21)", "reference": "Lave and Avouac, 2000, 2001; Lave, et al., 2005; Lillie and Yeats, 1991", "slip_type": "Reverse"}, "geometry": {"type": "LineString", "coordinates": [[86.53245224887844, 26.695639102610635], [86.78934054023229, 26.66995027347525], [86.90237138842798, 26.675088039302327], [86.97943787583414, 26.772705590016788]]}}, {"type": "Feature", "properties": {"catalog_id": "GAF_542", "catalog_name": "HimaTibetMap", "exposure_quality": "1", "fs_name": "Main Frontal Thrust", "net_slip_rate": "(15,10,21)", "reference": "Lave and Avouac, 2000, 2001; Lave, et al., 2005; Lillie and Yeats, 1991", "slip_type": "Reverse"}, "geometry": {"type": "LineString", "coordinates": [[87.03338441701842, 26.80353218497925], [87.23375728427442, 26.80353218497925], [87.49578334145535, 26.741878995054325], [87.67046737957597, 26.741878995054325], [87.79891152525289, 26.69050133678356], [87.99928439250888, 26.716190165918942], [88.18938172811073, 26.777843355843864], [88.45140778529165, 26.860047609077096], [88.65691841837473, 26.90114973569371], [88.78536256405165, 26.916563033174942], [88.96004660217227, 26.921700799002018], [89.04738862123257, 26.875460906558327], [89.1963838302178, 26.741878995054325], [89.29913914675934, 26.76756782418971]]}}, {"type": "Feature", "properties": {"catalog_id": "GAF_543", "catalog_name": "HimaTibetMap", "exposure_quality": "1", "fs_name": "Main Frontal Thrust", "net_slip_rate": "(15,10,21)", "reference": "Lave and Avouac, 2000, 2001; Lave, et al., 2005; Lillie and Yeats, 1991", "slip_type": "Reverse"}, "geometry": {"type": "LineString", "coordinates": [[89.3762056341655, 26.860047609077096], [89.54575190645903, 26.741878995054325], [89.75640030536918, 26.68536357095648], [89.96704870427934, 26.716190165918942], [90.13659497657288, 26.793256653325095], [90.27531465390396, 26.870323140731248]]}}, {"type": "Feature", "properties": {"catalog_id": "GAF_544", "catalog_name": "HimaTibetMap", "exposure_quality": "1", "fs_name": "Main Frontal Thrust", "net_slip_rate": "(15,10,21)", "reference": "Lave and Avouac, 2000, 2001; Lave, et al., 2005; Lillie and Yeats, 1991", "slip_type": "Reverse"}, "geometry": {"type": "LineString", "coordinates": [[90.39605215084026, 26.896011969866635], [90.54504735982549, 26.813807716633402], [90.84303777779596, 26.798394419152174], [91.08451277166857, 26.824083248287558], [91.29002340475165, 26.782981121670943], [91.57773829106794, 26.782981121670943], [91.76269786084272, 26.829221014114633], [91.99903508888826, 26.865185374904172], [92.34840316512948, 26.926838564829097], [92.53336273490426, 26.931976330656173], [92.68749570971656, 26.916563033174942], [92.84162868452887, 26.916563033174942]]}}, {"type": "Feature", "properties": {"catalog_id": "GAF_545", "catalog_name": "HimaTibetMap", "exposure_quality": "1", "fs_name": "Main Frontal Thrust", "net_slip_rate": "(15,10,21)", "reference": "Lave and Avouac, 2000, 2001; Lave, et al., 2005; Lillie and Yeats, 1991", "slip_type": "Reverse"}, "geometry": {"type": "LineString", "coordinates": [[92.7696999629498, 26.993629520581095], [93.02658825430365, 26.906287501520787], [93.33485420392826, 26.95252739396448], [93.66367121686118, 27.009042818062326], [93.82807972332763, 27.13748696373925], [93.96679940065872, 27.30189547020571], [94.08496801468148, 27.38923748926602], [94.22882545783963, 27.507406103288787]]}}, {"type": "Feature", "properties": {"catalog_id": "GAF_546", "catalog_name": "HimaTibetMap", "exposure_quality": "1", "fs_name": "Main Frontal Thrust", "net_slip_rate": "(15,10,21)", "reference": "Lave and Avouac, 2000, 2001; Lave, et al., 2005; Lillie and Yeats, 1991", "slip_type": "Reverse"}, "geometry": {"type": "LineString", "coordinates": [[94.27249646736979, 27.563921527386633], [94.61672677778394, 27.640988014792786], [94.92499272740856, 27.76943216046971], [95.21270761372487, 27.887600774492476], [95.28463633530394, 27.964667261898633]]}}, {"type": "Feature", "properties": {"catalog_id": "GAF_547", "catalog_name": "HimaTibetMap", "exposure_quality": "1", "fs_name": "Main Frontal Thrust", "net_slip_rate": "(15,10,21)", "reference": "Lave and Avouac, 2000, 2001; Lave, et al., 2005; Lillie and Yeats, 1991", "slip_type": "Reverse"}, "geometry": {"type": "LineString", "coordinates": [[95.15619218962702, 27.98008055937986], [95.31032516443933, 28.046871515131862], [95.33601399357471, 28.072560344267245]]}}, {"type": "Feature", "properties": {"catalog_id": "GAF_548", "catalog_name": "HimaTibetMap", "exposure_quality": "1", "net_slip_rate": "(15,10,21)", "slip_type": "Reverse"}, "geometry": {"type": "LineString", "coordinates": [[95.30004963278517, 28.123938002538015], [95.4695959050787, 28.18045342663586], [95.63914217737225, 28.303759806485708], [95.72134643060548, 28.2832087431774], [95.8497905762824, 28.057147046786017], [96.06043897519255, 28.03145821765063], [96.16833205756117, 27.990356091034016], [96.2967762032381, 27.841360882048786], [96.2710873741027, 27.65126354644694]]}}, {"type": "Feature", "properties": {"catalog_id": "GAF_549", "catalog_name": "HimaTibetMap", "exposure_quality": "1", "slip_type": "Reverse"}, "geometry": {"type": "LineString", "coordinates": [[96.20429641835071, 27.49713057163463], [95.91144376620733, 27.373824191784788], [95.64941770902641, 27.307033236032787], [95.43876931011626, 27.18372685618294]]}}, {"type": "Feature", "properties": {"catalog_id": "GAF_550", "catalog_name": "HimaTibetMap", "exposure_quality": "1", "slip_type": "Reverse"}, "geometry": {"type": "LineString", "coordinates": [[95.59290228492856, 27.39951302092017], [95.38739165184548, 27.276206641070324], [95.26922303782271, 27.111798134603866], [95.08426346804795, 27.009042818062326]]}}, {"type": "Feature", "properties": {"catalog_id": "GAF_551", "catalog_name": "HimaTibetMap", "exposure_quality": "1", "slip_type": "Reverse"}, "geometry": {"type": "LineString", "coordinates": [[94.93526825906271, 26.983353988926943], [94.78113528425041, 26.844634311595865], [94.68351773353595, 26.777843355843864], [94.5807624169944, 26.70077686843771]]}}, {"type": "Feature", "properties": {"catalog_id": "GAF_552", "catalog_name": "HimaTibetMap", "exposure_quality": "1", "slip_type": "Reverse"}, "geometry": {"type": "LineString", "coordinates": [[94.34956295477595, 26.644261444339865], [94.17487891665533, 26.51581729866294], [94.11836349255748, 26.346271026369404], [94.02074594184302, 26.181862519902943], [93.92312839112856, 26.00717848178233], [93.96423051774518, 25.945525291857404]]}}, {"type": "Feature", "properties": {"catalog_id": "GAF_556", "catalog_name": "HimaTibetMap", "exposure_quality": "1", "slip_type": "Syncline"}, "geometry": {"type": "LineString", "coordinates": [[83.88672618928231, 27.616483378299968], [84.17106018379977, 27.605333025573792], [84.3327402983293, 27.62763373102614], [84.47211970740649, 27.63320890738923], [84.61149911648367, 27.605333025573792], [84.7341529964716, 27.555156438306007]]}}, {"type": "Feature", "properties": {"catalog_id": "GAF_557", "catalog_name": "HimaTibetMap", "exposure_quality": "1", "slip_type": "Anticline"}, "geometry": {"type": "LineString", "coordinates": [[84.3383154746924, 27.516130203764394], [84.6003487637575, 27.46595361649661], [84.75087852556085, 27.46595361649661], [84.85123170009642, 27.432502558318088], [84.97388558008434, 27.393476323776476], [85.15229122370313, 27.393476323776476]]}}, {"type": "Feature", "properties": {"catalog_id": "GAF_558", "catalog_name": "HimaTibetMap", "exposure_quality": "1", "slip_type": "Anticline"}, "geometry": {"type": "LineString", "coordinates": [[83.05881249936385, 27.928693254632854], [83.40447343387527, 27.850640785549633], [83.64978119385111, 27.79488902191876], [83.92296483564239, 27.7781634928295], [84.1348215374397, 27.7781634928295], [84.40243000286789, 27.822764903734196]]}}, {"type": "Feature", "properties": {"catalog_id": "GAF_559", "catalog_name": "HimaTibetMap", "exposure_quality": "1", "slip_type": "Anticline"}, "geometry": {"type": "LineString", "coordinates": [[95.93369351034046, 27.77680491382939], [96.01012735754641, 27.671253410544974], [96.07928179073276, 27.638496047456705], [96.17027446597794, 27.602098977358633], [96.27946567627217, 27.57298132128017], [96.33406128141928, 27.57298132128017]]}}, {"type": "Feature", "properties": {"catalog_id": "GAF_841", "catalog_name": "HimaTibetMap", "exposure_quality": "1", "fs_name": "Kung Co fault", "slip_type": "Normal"}, "geometry": {"type": "LineString", "coordinates": [[86.51547266478754, 28.63450847392339], [86.47612587080819, 28.71757392787978], [86.46431806070032, 28.780398204386163], [86.47612587080819, 28.831242443820106], [86.49106298441382, 28.845350161976068], [86.46813876408797, 28.875915789077197], [86.442157981052, 28.942396028022156], [86.41694133869358, 29.01040454832217], [86.39860196243289, 29.083762053364886], [86.37262117939693, 29.121204946563772], [86.34918753195274, 29.141964101636624], [86.33696128111228, 29.151133789766963], [86.32371617603512, 29.159284623660596], [86.30843336248456, 29.170492020264344], [86.29824482011752, 29.178642854157978], [86.28398086080365, 29.188831396525025]]}}, {"type": "Feature", "properties": {"catalog_id": "GAF_842", "catalog_name": "HimaTibetMap", "exposure_quality": "1", "slip_type": "Normal"}, "geometry": {"type": "LineString", "coordinates": [[88.22217743229018, 29.65886112880602], [88.18579904974872, 29.633772589122252], [88.16949149895427, 29.59363092562822], [88.17200035292264, 29.533418430387172], [88.18329019578034, 29.480732497051253], [88.1757636338752, 29.40797573196832], [88.13813082434956, 29.36030750656916], [88.12809540847604, 29.325183551011882], [88.12056884657092, 29.278769752596908], [88.10300686879228, 29.24991793196057], [88.10175244180809, 29.231101527197744]]}}, {"type": "Feature", "properties": {"catalog_id": "GAF_843", "catalog_name": "HimaTibetMap", "exposure_quality": "1", "slip_type": "Normal"}, "geometry": {"type": "LineString", "coordinates": [[90.2806921133435, 29.677677533568847], [90.24180487683367, 29.612447330391046], [90.23929602286529, 29.555998116102565], [90.24055044984948, 29.480732497051253], [90.24055044984948, 29.45313510339911], [90.2154619101657, 29.420520001810207]]}}, {"type": "Feature", "properties": {"catalog_id": "GAF_844", "catalog_name": "HimaTibetMap", "exposure_quality": "1", "slip_type": "Normal"}, "geometry": {"type": "LineString", "coordinates": [[90.29072752921702, 29.794339243098378], [90.33965018160036, 29.737890028809897], [90.34215903556874, 29.70402050023681]]}}, {"type": "Feature", "properties": {"catalog_id": "GAF_845", "catalog_name": "HimaTibetMap", "exposure_quality": "1", "slip_type": "Normal"}, "geometry": {"type": "LineString", "coordinates": [[92.21376409597798, 29.287550741486225], [92.33795236741264, 29.36030750656916], [92.39440158170113, 29.39166818117387], [92.42199897535328, 29.424283282762772], [92.42576225630584, 29.469442654193557], [92.4295255372584, 29.52589186848204], [92.4194901213849, 29.584849936738898], [92.4194901213849, 29.631263735153873], [92.41698126741652, 29.68394966848979]]}}, {"type": "Feature", "properties": {"catalog_id": "GAF_850", "catalog_name": "HimaTibetMap", "exposure_quality": "1", "fs_name": "Lopukangri Rift", "reference": "Murphy et al., 2010 EPSL", "slip_type": "Normal"}, "geometry": {"type": "LineString", "coordinates": [[84.52250215612476, 29.92753146805086], [84.5337174230786, 30.030590677896956], [84.59503091704097, 30.10882249748439], [84.59646790820223, 30.136125329548197], [84.57096131508999, 30.151572984531665], [84.53645107423301, 30.263411312253545], [84.51827103891233, 30.28871329771173]]}}, {"type": "Feature", "properties": {"catalog_id": "GAF_851", "catalog_name": "HimaTibetMap", "exposure_quality": "1", "reference": "Murphy et al., 2010 EPSLc", "slip_type": "Normal"}, "geometry": {"type": "LineString", "coordinates": [[84.81017938231678, 29.97567494455216], [84.86554427877076, 30.088250234008594], [84.8692352718677, 30.163915592495705], [84.8360163339953, 30.230353468240487], [84.80095189957444, 30.280181875049074], [84.76773296170205, 30.33001028185766], [84.71790455489347, 30.38352968176318], [84.67730363082721, 30.413057626538635], [84.60348376888857, 30.464731529895687]]}}, {"type": "Feature", "properties": {"catalog_id": "GAF_861", "catalog_name": "HimaTibetMap", "exposure_quality": "1", "slip_type": "Sinistral"}, "geometry": {"type": "LineString", "coordinates": [[92.12203077682865, 25.86932725301863], [91.96312035031126, 25.784196667384307], [91.77015768954013, 25.608260123740045], [91.65097486965207, 25.477726559100752]]}}, {"type": "Feature", "properties": {"catalog_id": "GAF_862", "catalog_name": "HimaTibetMap", "exposure_quality": "1", "fs_name": "Oldham Fault", "reference": "Bilham and England, 2001", "slip_type": "Reverse"}, "geometry": {"type": "LineString", "coordinates": [[91.4750383260078, 25.733118316003715], [91.31045252711479, 25.738793688379335], [91.18559433485112, 25.767170550257443], [91.08911300446556, 25.80122278451117], [91.00965779120686, 25.84095039114052], [90.92452720557253, 25.87500262539425], [90.85074736468945, 25.909054859647977], [90.72021380005016, 25.94878246627733], [90.62940784204022, 25.96013321102857], [90.58968023541087, 25.965808583404193]]}}, {"type": "Feature", "properties": {"catalog_id": "GAF_864", "catalog_name": "HimaTibetMap", "exposure_quality": "1", "slip_type": "Anticline"}, "geometry": {"type": "LineString", "coordinates": [[90.03349374259997, 25.687715336998743], [90.1470011901124, 25.585558634237557], [90.28888549950294, 25.494752676227616], [90.41941906414223, 25.472051186725132], [90.51022502215217, 25.443674324847024], [90.6237324696646, 25.403946718217675], [90.69751231054768, 25.352868366837082]]}}, {"type": "Feature", "properties": {"catalog_id": "GAF_865", "catalog_name": "HimaTibetMap", "exposure_quality": "1", "fs_name": "Barapani - Tyrsad Fault", "reference": "Srivastava and Sinha, 2007", "slip_type": "Sinistral"}, "geometry": {"type": "LineString", "coordinates": [[93.60330296686583, 26.635502523727517], [93.29115748620664, 26.60145028947379], [93.10954557018677, 26.52767044859071], [92.98468737792311, 26.44253986295639], [92.87117993041068, 26.317681670692718], [92.77469860002512, 26.181472733677804], [92.62146354588333, 26.005536190033542], [92.51363147074653, 25.892028742521113], [92.36607178898038, 25.806898156886792], [92.25823971384357, 25.704741454125607], [92.15040763870675, 25.60258475136442]]}}, {"type": "Feature", "properties": {"catalog_id": "GAF_866", "catalog_name": "HimaTibetMap", "exposure_quality": "1", "slip_type": "Anticline"}, "geometry": {"type": "LineString", "coordinates": [[90.8620981094407, 25.562857144735073], [91.1515421005974, 25.477726559100752], [91.30477715473917, 25.42664820772016], [91.4750383260078, 25.42664820772016]]}}, {"type": "Feature", "properties": {"catalog_id": "GAF_867", "catalog_name": "HimaTibetMap", "exposure_quality": "1", "slip_type": "Normal"}, "geometry": {"type": "LineString", "coordinates": [[88.96802920651075, 27.558484775607397], [89.08800889629502, 27.64194890763124], [89.19233906132483, 27.735846056158064], [89.27058668509717, 27.876691778948295], [89.33840129236656, 27.9288568614632], [89.42186542439039, 27.965372419223627], [89.43751494914487, 28.101001633762372], [89.48968003165976, 28.132300683271314], [89.56792765543211, 28.231414340049625], [89.60965972144403, 28.27836291431304]]}}, {"type": "Feature", "properties": {"catalog_id": "GAF_868", "catalog_name": "HimaTibetMap", "exposure_quality": "1", "slip_type": "Sinistral"}, "geometry": {"type": "LineString", "coordinates": [[87.84647993244036, 28.08013560075641], [88.11773836151785, 28.085352109007903], [88.3055326585715, 28.101001633762372], [88.48811044737366, 28.121867666768335], [88.59244061240346, 28.132300683271314], [88.76458538470263, 28.174032749283235]]}}, {"type": "Feature", "properties": {"catalog_id": "GAF_869", "catalog_name": "HimaTibetMap", "exposure_quality": "1", "slip_type": "Sinistral"}, "geometry": {"type": "LineString", "coordinates": [[87.72650024265609, 28.179249257534725], [87.9351605727157, 28.215764815295156], [88.12295486976934, 28.262713389558566], [88.34726472458343, 28.27836291431304], [88.49332695562515, 28.309661963821977], [88.7332863351937, 28.294012439067508], [88.9367301570018, 28.273146406061546], [89.10365842104949, 28.28879593081602], [89.24972065209121, 28.304445455570487], [89.42708193264188, 28.34096101333092], [89.5261955894202, 28.37747657109135]]}}, {"type": "Feature", "properties": {"catalog_id": "GAF_889", "catalog_name": "HimaTibetMap", "exposure_quality": "1", "slip_type": "Normal"}, "geometry": {"type": "LineString", "coordinates": [[87.85570114104247, 28.62684408283872], [87.86874457364264, 28.70510467843975], [87.90787487144316, 28.79640870664095], [87.90787487144316, 28.874669302241976], [87.90787487144316, 28.97901676304335], [87.98613546704418, 29.070320791244548]]}}, {"type": "Feature", "properties": {"catalog_id": "GAF_890", "catalog_name": "HimaTibetMap", "exposure_quality": "1", "fs_name": "Ama Drime Detachment", "reference": "Jessup, et al., 2008", "slip_type": "Normal"}, "geometry": {"type": "LineString", "coordinates": [[87.36428236479966, 28.100711976073907], [87.36618593360433, 28.116892310913553], [87.36713771800666, 28.126410154936874], [87.36618593360433, 28.136879783362524], [87.36999307121366, 28.150204764995173], [87.37380020882298, 28.164481531030155], [87.37475199322532, 28.17590294385814], [87.37380020882298, 28.18922792549079], [87.37665556202998, 28.2073118291351], [87.37760734643231, 28.21587788875609], [87.37951091523698, 28.228251085986408], [87.38236626844397, 28.240624283216725], [87.38236626844397, 28.25109391164238], [87.3861734060533, 28.25680461805637], [87.39378768127196, 28.271081384091353], [87.40045017208828, 28.281551012517006], [87.40425730969761, 28.28916528773566], [87.41091980051394, 28.290117072137992], [87.42424478214659, 28.29297242534499], [87.43566619497457, 28.300586700563645], [87.4423286857909, 28.310104544586967], [87.45660545182588, 28.32057417301262], [87.48515898389584, 28.319622388610288], [87.49943574993083, 28.321525957414952], [87.52037500678213, 28.32533309502428], [87.54131426363344, 28.32914023263361], [87.55463924526609, 28.331995585840605], [87.5698677957034, 28.337706292254598], [87.58224099293372, 28.33865807665693], [87.5965177589687, 28.344368783070923], [87.60984274060135, 28.350079489484916], [87.63554091946432, 28.359597333508237], [87.6498176854993, 28.372922315140887], [87.67266051115527, 28.390054434382865], [87.69074441479958, 28.411945475636504], [87.70216582762757, 28.430981163683146], [87.70216582762757, 28.44335436091346], [87.70216582762757, 28.458582911350774], [87.7059729652369, 28.477618599397417], [87.70978010284622, 28.49284714983473], [87.71358724045555, 28.512834622283705], [87.72024973127188, 28.542339938756], [87.71929794686955, 28.5689899020213], [87.71168367165089, 28.59754343409126]]}}, {"type": "Feature", "properties": {"catalog_id": "GAF_891", "catalog_name": "HimaTibetMap", "exposure_quality": "1", "fs_name": "Nyonno Ri Detachment", "reference": "Jessup, et al., 2008", "slip_type": "Normal"}, "geometry": {"type": "LineString", "coordinates": [[87.78378134012752, 28.476547841944775], [87.78497107063043, 28.456322423395218], [87.78021214861877, 28.442045657360236], [87.77545322660711, 28.425389430319424], [87.76831484358962, 28.40159482026112], [87.75998673006922, 28.388507784729054], [87.7587969995663, 28.370661827185327], [87.73976131151966, 28.354005600144514], [87.73143319799925, 28.342108295115363], [87.72429481498176, 28.331400720589127], [87.7195358929701, 28.319503415559975], [87.71358724045552, 28.30641638002791], [87.71001804894678, 28.292139613992926], [87.70525912693512, 28.285001230975436], [87.70168993542637, 28.273103925946284], [87.69693101341471, 28.262396351420048], [87.69098236090014, 28.25287850739673], [87.68503370838556, 28.24336066337341], [87.68146451687682, 28.233842819350087], [87.6802747863739, 28.22313524482385], [87.6802747863739, 28.214807131303445], [87.67789532536807, 28.205289287280124], [87.67432613385932, 28.195771443256803], [87.6719466728535, 28.18625359923348], [87.66361855933309, 28.17435629420433], [87.65529044581268, 28.160079528169348], [87.65053152380102, 28.151751414648942], [87.64696233229228, 28.14223357062562], [87.64220341028062, 28.126767074087724], [87.64220341028062, 28.11011084704691], [87.64696233229228, 28.10059300302359], [87.64339314078353, 28.08631623698861], [87.64220341028062, 28.075608662462372], [87.63744448826895, 28.06133189642739], [87.63387529676021, 28.042296208380748], [87.63387529676021, 28.03396809486034], [87.63030610525146, 28.02207078983119], [87.62911637474855, 28.004224832287463], [87.62673691374272, 27.98756860524665]]}}, {"type": "Feature", "properties": {"catalog_id": "GAF_892", "catalog_name": "HimaTibetMap", "exposure_quality": "1", "fs_name": "Tingri fault", "slip_type": "Normal"}, "geometry": {"type": "LineString", "coordinates": [[86.58542252075081, 28.227924936136848], [86.6597442427118, 28.402799576045037], [86.6597442427118, 28.507724359989954], [86.61165371673704, 28.603905411939458]]}}, {"type": "Feature", "properties": {"catalog_id": "GAF_895", "catalog_name": "HimaTibetMap", "exposure_quality": "1", "fs_name": "Tangra Yum Co Rift", "reference": "Dewane et al., 2006", "slip_type": "Normal"}, "geometry": {"type": "LineString", "coordinates": [[86.35679352667842, 30.188025547353682], [86.3589490134203, 30.154076631169083], [86.30721733161519, 30.102344949363978], [86.29913425633315, 30.050074395873402], [86.28296810576903, 30.02905840014008], [86.27057405700323, 29.973015744851214]]}}, {"type": "Feature", "properties": {"catalog_id": "GAF_896", "catalog_name": "HimaTibetMap", "exposure_quality": "1", "fs_name": "Tangra Yum Co Rift", "reference": "Dewane et al., 2006", "slip_type": "Normal"}, "geometry": {"type": "LineString", "coordinates": [[86.39779370949427, 29.894523317963237], [86.40131440392496, 29.894523317963237], [86.42595926493978, 29.9332509567008], [86.43816315118434, 29.967627027996517], [86.4478628415228, 29.977865590020443]]}}, {"type": "Feature", "properties": {"catalog_id": "GAF_897", "catalog_name": "HimaTibetMap", "exposure_quality": "1", "reference": "Murphy et al., 2010 EPSL", "slip_type": "Normal"}, "geometry": {"type": "LineString", "coordinates": [[85.77133563556684, 29.86014457973218], [85.76055820185744, 29.868227655014223], [85.75786384343009, 29.87792734535268], [85.75085851151898, 29.88601042063473], [85.74277543623694, 29.902176571198826], [85.7363089760113, 29.91564836333557], [85.7363089760113, 29.92373143861762], [85.73253687421301, 29.938819845810773], [85.72283718387455, 29.95498599637487], [85.71744846701985, 29.959296969858627], [85.70828764836686, 29.961452456600508], [85.69643247128653, 29.978696350535543], [85.69373811285918, 29.98893491255947], [85.69751021465747, 30.001328961325274], [85.69912682971388, 30.011028651663732], [85.70128231645576, 30.02072834200219], [85.69912682971388, 30.028272545598767], [85.69697134297199, 30.039588850993635], [85.69804908634293, 30.047671926275683], [85.69804908634293, 30.05844935998508], [85.69589359960106, 30.072460023807295], [85.69751021465747, 30.08108197077481], [85.70343780319763, 30.09239827616968]]}}, {"type": "Feature", "properties": {"catalog_id": "GAF_908", "catalog_name": "HimaTibetMap", "exposure_quality": "1", "slip_type": "Normal"}, "geometry": {"type": "LineString", "coordinates": [[85.30813579938628, 28.587842519133865], [85.32003310441543, 28.604498746174677], [85.34263798397082, 28.62829335623298], [85.36762232453204, 28.648518774782538], [85.37832989905827, 28.673503115343756], [85.37714016855536, 28.69491826439623], [85.37595043805244, 28.718712874454532], [85.36643259402912, 28.73655883199826], [85.36881205503495, 28.75440478954199], [85.37357097704661, 28.778199399600293], [85.37832989905827, 28.80080427915568], [85.3723812465437, 28.82102969770524], [85.36881205503495, 28.838875655248966], [85.3652428635262, 28.86267026530727], [85.36286340252038, 28.88170595335391], [85.36286340252038, 28.903121102406384], [85.36881205503495, 28.92096705995011], [85.37832989905827, 28.94595140051133]]}}, {"type": "Feature", "properties": {"catalog_id": "GAF_915", "catalog_name": "HimaTibetMap", "exposure_quality": "1", "slip_type": "Normal"}, "geometry": {"type": "LineString", "coordinates": [[89.92542067263554, 29.922506800924154], [89.93493851665886, 29.932024644947475], [89.94624095643655, 29.944516815228084], [89.95694853096279, 29.954034659251406], [89.96587150973465, 29.96057817701744], [89.9736047580036, 29.967121694783472], [89.97657908426089, 29.97723440405825], [89.98014827576964, 29.985562517578657], [89.98431233252984, 29.99210603534469], [89.98847638929004, 30.00162387936801], [89.9932353113017, 30.007572531882587], [90.00334802057648, 30.01649551065445], [90.01227099934835, 30.022444163169027], [90.01584019085709, 30.02660821992923], [90.02238370862312, 30.035531198701094], [90.03309128314936, 30.056351482502112], [90.03785020516102, 30.06943851803418], [90.05034237544163, 30.082525553566246], [90.0592653542135, 30.090258801835194], [90.0675934677339, 30.0985869153556], [90.07235238974556, 30.112268816139125], [90.0759215812543, 30.12595071692265], [90.07949077276305, 30.142012078712003], [90.07711131175722, 30.158073440501358], [90.08484456002616, 30.174729667542167], [90.0925778082951, 30.192575625085894], [90.10209565231843, 30.2009037386063], [90.10863917008446, 30.206257525869418], [90.11637241835341, 30.21280104363545], [90.12232107086798, 30.221724022407315], [90.1276748581311, 30.23064700117918], [90.13600297165151, 30.2401648452025], [90.14492595042337, 30.246113497717076], [90.15622839020106, 30.255631341740397], [90.16812569523022, 30.26455432051226], [90.17169488673896, 30.275261895038497], [90.17288461724188, 30.288348930570567], [90.18061786551083, 30.29727190934243], [90.19370490104289, 30.307979483868667], [90.1978689578031, 30.328204902418225], [90.19489463154581, 30.33950734219592]]}}, {"type": "Feature", "properties": {"average_dip": "(23.0,,)", "average_rake": "(90.0,,)", "catalog_id": "EOS_AF0126", "catalog_name": "EOS_SE_Asia", "lower_seis_depth": "(20.0,,)", "slip_type": "Reverse", "upper_seis_depth": "(1.0,,)"}, "geometry": {"type": "LineString", "coordinates": [[93.179, 25.342], [93.178, 25.344], [93.178, 25.349], [93.178, 25.352], [93.178, 25.356], [93.178, 25.361], [93.179, 25.365], [93.179, 25.368], [93.18, 25.373], [93.181, 25.377], [93.185, 25.38], [93.187, 25.383], [93.188, 25.387], [93.191, 25.392], [93.194, 25.395], [93.197, 25.398], [93.2, 25.402], [93.203, 25.404], [93.206, 25.406], [93.208, 25.409], [93.209, 25.412], [93.209, 25.416], [93.211, 25.419], [93.214, 25.421], [93.217, 25.422], [93.22, 25.424], [93.223, 25.425], [93.226, 25.427], [93.229, 25.431], [93.232, 25.435], [93.235, 25.438], [93.237, 25.441], [93.239, 25.444], [93.242, 25.449], [93.245, 25.453], [93.247, 25.456], [93.248, 25.459], [93.251, 25.462], [93.253, 25.466], [93.257, 25.47], [93.26, 25.473], [93.299, 25.507], [93.328, 25.526], [93.358, 25.541], [93.4, 25.556], [93.435, 25.572], [93.451, 25.585], [93.479, 25.601], [93.534, 25.64], [93.542, 25.652], [93.593, 25.692], [93.656, 25.716], [93.729, 25.762], [93.791, 25.806], [93.809, 25.821], [93.863, 25.838], [93.916, 25.883], [93.955, 25.9], [93.984, 25.922], [93.965, 25.96], [93.958, 25.998], [93.965, 26.03], [93.982, 26.048], [93.999, 26.108], [94.038, 26.208], [94.048, 26.248], [94.097, 26.3], [94.114, 26.327], [94.165, 26.331], [94.181, 26.344], [94.173, 26.41], [94.178, 26.444], [94.205, 26.479], [94.247, 26.524], [94.283, 26.562], [94.369, 26.624], [94.421, 26.658], [94.465, 26.671], [94.493, 26.695], [94.483, 26.741], [94.527, 26.749], [94.583, 26.756], [94.619, 26.767], [94.639, 26.792], [94.68, 26.785], [94.702, 26.786], [94.815, 26.827], [94.832, 26.859], [94.85, 26.898], [94.858, 26.939], [94.887, 26.955], [94.922, 26.976], [94.998, 27.017], [95.04, 27.02], [95.104, 27.001], [95.134, 27.005], [95.174, 27.033], [95.24, 27.068], [95.285, 27.102], [95.365, 27.141], [95.393, 27.217], [95.422, 27.276], [95.476, 27.314], [95.503, 27.349], [95.599, 27.393], [95.744, 27.438]]}}, {"type": "Feature", "properties": {"average_dip": "(23.0,,)", "average_rake": "(90.0,,)", "catalog_id": "EOS_AF0127", "catalog_name": "EOS_SE_Asia", "lower_seis_depth": "(20.0,,)", "slip_type": "Reverse", "upper_seis_depth": "(1.0,,)"}, "geometry": {"type": "LineString", "coordinates": [[95.304, 27.056], [95.311, 27.058], [95.318, 27.061], [95.326, 27.066], [95.336, 27.071], [95.343, 27.076], [95.353, 27.079], [95.36, 27.08], [95.367, 27.08], [95.375, 27.08], [95.382, 27.08], [95.389, 27.084], [95.396, 27.089], [95.403, 27.092], [95.409, 27.096], [95.414, 27.102], [95.417, 27.106], [95.421, 27.109], [95.426, 27.113], [95.467, 27.145], [95.498, 27.18], [95.508, 27.194], [95.516, 27.223], [95.532, 27.237], [95.589, 27.25], [95.682, 27.261], [95.727, 27.284], [95.8, 27.31], [95.846, 27.315], [95.916, 27.359], [95.94, 27.383], [95.96, 27.409], [96.014, 27.41], [96.065, 27.417], [96.122, 27.431], [96.203, 27.477]]}}, {"type": "Feature", "properties": {"average_dip": "(90.0,,)", "average_rake": "(180.0,,)", "catalog_id": "EOS_AF0128", "catalog_name": "EOS_SE_Asia", "lower_seis_depth": "(5.0,,)", "slip_type": "Dextral", "upper_seis_depth": "(1.0,,)"}, "geometry": {"type": "LineString", "coordinates": [[94.046, 25.307], [94.043, 25.304], [94.041, 25.301], [94.037, 25.294], [94.029, 25.279], [94.025, 25.273], [94.017, 25.259], [94.011, 25.245], [94.002, 25.224], [93.999, 25.216], [93.996, 25.204], [93.992, 25.197], [93.989, 25.191], [93.986, 25.189], [93.981, 25.182], [93.975, 25.177], [93.856, 24.972], [93.806, 24.864], [93.772, 24.711], [93.707, 24.511], [93.654, 24.342], [93.586, 24.112], [93.528, 23.891]]}}, {"type": "Feature", "properties": {"average_dip": "(5.0,,)", "average_rake": "(90.0,,)", "catalog_id": "EOS_AF0144", "catalog_name": "EOS_SE_Asia", "lower_seis_depth": "(30.0,,)", "slip_type": "Subduction_Thrust", "upper_seis_depth": "(3.0,,)"}, "geometry": {"type": "LineString", "coordinates": [[91.609, 20.388], [91.475, 20.539], [91.362, 20.693], [91.209, 20.898], [91.105, 21.095], [90.974, 21.265], [90.869, 21.409], [90.791, 21.618], [90.712, 21.749], [90.647, 22.037], [90.581, 22.325], [90.555, 22.535], [90.542, 22.77], [90.516, 22.954], [90.503, 23.098], [90.529, 23.216], [90.516, 23.333], [90.542, 23.517], [90.542, 23.739], [90.607, 23.909], [90.647, 24.067], [90.725, 24.211], [90.831, 24.395], [90.967, 24.526], [91.086, 24.645], [91.235, 24.758], [91.366, 24.877], [91.466, 24.946], [91.537, 25.025], [91.613, 25.129]]}}, {"type": "Feature", "properties": {"average_dip": "(45.0,,)", "average_rake": "(90.0,,)", "catalog_id": "EOS_AF0145", "catalog_name": "EOS_SE_Asia", "lower_seis_depth": "(35.0,,)", "slip_type": "Reverse", "upper_seis_depth": "(1.0,,)"}, "geometry": {"type": "LineString", "coordinates": [[92.517, 25.177], [92.327, 25.166], [92.127, 25.169], [91.949, 25.185], [91.805, 25.168], [91.605, 25.188], [91.207, 25.2], [90.999, 25.177], [90.837, 25.158], [90.774, 25.166], [90.752, 25.157], [90.699, 25.15], [90.633, 25.153], [90.588, 25.153], [90.521, 25.147], [90.463, 25.141], [90.379, 25.153], [90.289, 25.162], [90.197, 25.183], [90.122, 25.202], [90.048, 25.222], [89.998, 25.237], [89.882, 25.299]]}}, {"type": "Feature", "properties": {"average_dip": "(25.0,,)", "average_rake": "(90.0,,)", "catalog_id": "EOS_AF0155", "catalog_name": "EOS_SE_Asia", "lower_seis_depth": "(40.0,,)", "slip_type": "Reverse", "upper_seis_depth": "(1.0,,)"}, "geometry": {"type": "LineString", "coordinates": [[89.391, 26.843], [89.393, 26.843], [89.394, 26.842], [89.396, 26.842], [89.397, 26.841], [89.399, 26.841], [89.4, 26.84], [89.402, 26.84], [89.403, 26.839], [89.405, 26.839], [89.406, 26.838], [89.408, 26.838], [89.409, 26.837], [89.411, 26.836], [89.412, 26.836], [89.414, 26.835], [89.415, 26.835], [89.417, 26.834], [89.418, 26.834], [89.42, 26.833], [89.421, 26.833], [89.423, 26.832], [89.424, 26.831], [89.425, 26.831], [89.427, 26.83], [89.428, 26.83], [89.43, 26.829], [89.431, 26.828], [89.433, 26.828], [89.434, 26.827], [89.436, 26.827], [89.437, 26.826], [89.438, 26.825], [89.44, 26.825], [89.441, 26.824], [89.443, 26.823], [89.444, 26.823], [89.446, 26.822], [89.447, 26.821], [89.448, 26.821], [89.45, 26.82], [89.451, 26.82], [89.453, 26.819], [89.454, 26.818], [89.455, 26.818], [89.457, 26.817], [89.458, 26.816], [89.46, 26.815], [89.461, 26.815], [89.462, 26.814], [89.464, 26.813], [89.465, 26.813], [89.466, 26.812], [89.468, 26.811], [89.469, 26.811], [89.471, 26.81], [89.472, 26.809], [89.473, 26.808], [89.475, 26.808], [89.476, 26.807], [89.477, 26.806], [89.479, 26.806], [89.48, 26.805], [89.481, 26.804], [89.483, 26.803], [89.483, 26.803], [89.484, 26.802], [89.485, 26.802], [89.486, 26.802], [89.487, 26.801], [89.487, 26.801], [89.488, 26.8], [89.489, 26.8], [89.49, 26.799], [89.491, 26.799], [89.491, 26.798], [89.492, 26.798], [89.493, 26.797], [89.494, 26.796], [89.495, 26.796], [89.495, 26.795], [89.496, 26.795], [89.497, 26.794], [89.498, 26.794], [89.499, 26.793], [89.499, 26.792], [89.5, 26.792], [89.501, 26.791], [89.502, 26.791], [89.503, 26.79], [89.504, 26.789], [89.504, 26.789], [89.505, 26.788], [89.506, 26.787], [89.507, 26.787], [89.508, 26.786], [89.509, 26.785], [89.509, 26.785], [89.51, 26.784], [89.511, 26.784], [89.511, 26.783], [89.512, 26.782], [89.513, 26.782], [89.514, 26.78], [89.516, 26.779], [89.517, 26.778], [89.519, 26.776], [89.521, 26.775], [89.522, 26.774], [89.524, 26.772], [89.525, 26.771], [89.527, 26.769], [89.53, 26.767], [89.535, 26.762], [89.537, 26.76], [89.539, 26.758], [89.541, 26.756], [89.543, 26.754], [89.545, 26.752], [89.547, 26.751], [89.548, 26.75], [89.549, 26.749], [89.55, 26.748], [89.551, 26.747], [89.552, 26.746], [89.553, 26.746], [89.554, 26.745], [89.555, 26.744], [89.556, 26.743], [89.556, 26.743], [89.557, 26.742], [89.558, 26.741], [89.559, 26.74], [89.56, 26.74], [89.561, 26.739], [89.562, 26.738], [89.563, 26.738], [89.564, 26.737], [89.565, 26.736], [89.565, 26.735], [89.566, 26.735], [89.567, 26.734], [89.568, 26.733], [89.569, 26.733], [89.57, 26.732], [89.571, 26.731], [89.572, 26.731], [89.573, 26.73], [89.574, 26.73], [89.575, 26.729], [89.576, 26.728], [89.577, 26.728], [89.578, 26.727], [89.578, 26.727], [89.579, 26.726], [89.58, 26.726], [89.581, 26.725], [89.582, 26.725], [89.583, 26.724], [89.584, 26.724], [89.585, 26.723], [89.586, 26.723], [89.587, 26.722], [89.588, 26.722], [89.588, 26.721], [89.589, 26.721], [89.59, 26.72], [89.591, 26.72], [89.592, 26.719], [89.593, 26.719], [89.596, 26.718], [89.598, 26.717], [89.6, 26.716], [89.601, 26.715], [89.603, 26.715], [89.604, 26.714], [89.606, 26.714], [89.607, 26.713], [89.609, 26.712], [89.61, 26.712], [89.612, 26.711], [89.613, 26.711], [89.614, 26.71], [89.616, 26.71], [89.617, 26.709], [89.618, 26.709], [89.62, 26.708], [89.621, 26.708], [89.622, 26.707], [89.624, 26.707], [89.625, 26.706], [89.626, 26.706], [89.627, 26.705], [89.629, 26.705], [89.63, 26.705], [89.631, 26.704], [89.632, 26.704], [89.634, 26.703], [89.635, 26.703], [89.636, 26.703], [89.637, 26.702], [89.638, 26.702], [89.64, 26.702], [89.641, 26.701], [89.642, 26.701], [89.643, 26.701], [89.644, 26.7], [89.645, 26.7], [89.647, 26.7], [89.648, 26.7], [89.649, 26.699], [89.65, 26.699], [89.651, 26.699], [89.652, 26.699], [89.653, 26.698], [89.654, 26.698], [89.656, 26.698], [89.657, 26.698], [89.658, 26.698], [89.659, 26.697], [89.66, 26.697], [89.661, 26.697], [89.662, 26.697], [89.663, 26.697], [89.664, 26.697], [89.665, 26.697], [89.666, 26.696], [89.667, 26.696], [89.669, 26.696], [89.67, 26.696], [89.671, 26.696], [89.672, 26.696], [89.673, 26.696], [89.673, 26.696], [89.674, 26.696], [89.677, 26.696], [89.678, 26.696], [89.679, 26.696], [89.68, 26.695], [89.681, 26.695], [89.681, 26.695], [89.682, 26.695], [89.682, 26.695], [89.683, 26.695], [89.683, 26.695], [89.684, 26.695], [89.684, 26.695], [89.685, 26.695], [89.685, 26.695], [89.686, 26.695], [89.686, 26.695], [89.687, 26.695], [89.687, 26.695], [89.688, 26.695], [89.688, 26.696], [89.689, 26.696], [89.689, 26.696], [89.689, 26.696], [89.69, 26.696], [89.69, 26.696], [89.691, 26.696], [89.691, 26.696], [89.691, 26.696], [89.692, 26.696], [89.692, 26.696], [89.692, 26.696], [89.692, 26.696], [89.693, 26.696], [89.693, 26.696], [89.693, 26.696], [89.693, 26.696], [89.694, 26.696], [89.694, 26.696], [89.694, 26.697], [89.694, 26.697], [89.695, 26.697], [89.695, 26.697], [89.695, 26.697], [89.695, 26.697], [89.695, 26.697], [89.696, 26.697], [89.696, 26.697], [89.696, 26.697], [89.696, 26.697], [89.697, 26.697], [89.697, 26.698], [89.697, 26.698], [89.697, 26.698], [89.698, 26.698], [89.698, 26.698], [89.698, 26.698], [89.698, 26.698], [89.699, 26.698], [89.699, 26.699], [89.699, 26.699], [89.7, 26.699], [89.7, 26.699], [89.701, 26.699], [89.701, 26.7], [89.702, 26.7], [89.702, 26.7], [89.703, 26.701], [89.703, 26.701], [89.704, 26.701], [89.704, 26.702], [89.705, 26.702], [89.705, 26.702], [89.706, 26.703], [89.708, 26.704], [89.709, 26.705], [89.71, 26.705], [89.71, 26.706], [89.711, 26.706], [89.711, 26.706], [89.712, 26.707], [89.712, 26.707], [89.712, 26.707], [89.713, 26.707], [89.713, 26.707], [89.713, 26.708], [89.714, 26.708], [89.714, 26.708], [89.715, 26.708], [89.715, 26.709], [89.715, 26.709], [89.716, 26.709], [89.716, 26.709], [89.717, 26.709], [89.717, 26.71], [89.717, 26.71], [89.718, 26.71], [89.718, 26.71], [89.719, 26.71], [89.719, 26.71], [89.719, 26.711], [89.72, 26.711], [89.72, 26.711], [89.72, 26.711], [89.721, 26.711], [89.721, 26.711], [89.721, 26.711], [89.722, 26.711], [89.722, 26.711], [89.722, 26.712], [89.723, 26.712], [89.723, 26.712], [89.724, 26.712], [89.725, 26.712], [89.725, 26.712], [89.726, 26.713], [89.727, 26.713], [89.728, 26.713], [89.728, 26.713], [89.729, 26.713], [89.73, 26.713], [89.731, 26.714], [89.732, 26.714], [89.732, 26.714], [89.733, 26.714], [89.734, 26.714], [89.735, 26.714], [89.735, 26.714], [89.736, 26.714], [89.737, 26.715], [89.738, 26.715], [89.739, 26.715], [89.741, 26.715], [89.743, 26.715], [89.747, 26.716], [89.749, 26.716], [89.75, 26.716], [89.751, 26.716], [89.752, 26.717], [89.754, 26.717], [89.755, 26.717], [89.757, 26.717], [89.76, 26.718], [89.762, 26.718], [89.765, 26.719], [89.768, 26.719], [89.77, 26.719], [89.773, 26.72], [89.776, 26.72], [89.778, 26.72], [89.781, 26.721], [89.784, 26.721], [89.786, 26.721], [89.789, 26.721], [89.792, 26.722], [89.795, 26.722], [89.797, 26.722], [89.8, 26.722], [89.803, 26.723], [89.806, 26.723], [89.809, 26.723], [89.812, 26.723], [89.815, 26.723], [89.818, 26.724], [89.821, 26.724], [89.824, 26.724], [89.827, 26.724], [89.83, 26.724], [89.833, 26.724], [89.836, 26.724], [89.839, 26.724], [89.842, 26.725], [89.845, 26.725], [89.848, 26.725], [89.851, 26.725], [89.853, 26.725], [89.856, 26.725], [89.859, 26.725], [89.862, 26.725], [89.864, 26.725], [89.867, 26.725], [89.87, 26.725], [89.873, 26.725], [89.879, 26.725], [89.885, 26.725], [89.891, 26.725], [89.897, 26.725], [89.902, 26.725], [89.908, 26.725], [89.915, 26.725], [89.927, 26.724], [89.949, 26.724], [89.957, 26.724], [89.966, 26.724], [89.974, 26.724], [89.978, 26.723], [89.983, 26.723], [89.987, 26.723], [89.991, 26.723], [89.995, 26.723], [89.998, 26.723], [90.002, 26.723], [90.006, 26.723], [90.008, 26.723], [90.011, 26.723], [90.013, 26.723], [90.016, 26.723], [90.018, 26.723], [90.021, 26.723], [90.023, 26.723], [90.026, 26.723], [90.028, 26.723], [90.031, 26.723], [90.034, 26.723], [90.036, 26.723], [90.039, 26.723], [90.042, 26.723], [90.048, 26.722], [90.053, 26.722], [90.058, 26.722], [90.064, 26.722], [90.07, 26.722], [90.076, 26.721], [90.082, 26.721], [90.104, 26.72], [90.113, 26.719], [90.122, 26.719], [90.126, 26.719], [90.13, 26.719], [90.135, 26.718], [90.139, 26.718], [90.143, 26.718], [90.148, 26.718], [90.152, 26.718], [90.156, 26.718], [90.16, 26.718], [90.164, 26.717], [90.166, 26.717], [90.169, 26.717], [90.171, 26.717], [90.173, 26.717], [90.175, 26.717], [90.178, 26.717], [90.18, 26.717], [90.182, 26.717], [90.184, 26.717], [90.187, 26.717], [90.189, 26.717], [90.191, 26.717], [90.193, 26.717], [90.195, 26.717], [90.197, 26.717], [90.199, 26.718], [90.201, 26.718], [90.203, 26.718], [90.205, 26.718], [90.207, 26.718], [90.209, 26.718], [90.212, 26.718], [90.214, 26.718], [90.215, 26.718], [90.217, 26.718], [90.219, 26.718], [90.221, 26.718], [90.223, 26.719], [90.225, 26.719], [90.227, 26.719], [90.229, 26.719], [90.231, 26.719], [90.234, 26.719], [90.237, 26.72], [90.241, 26.72], [90.244, 26.72], [90.247, 26.72], [90.25, 26.721], [90.254, 26.721], [90.257, 26.721], [90.26, 26.722], [90.263, 26.722], [90.267, 26.722], [90.27, 26.723], [90.273, 26.723], [90.276, 26.723], [90.279, 26.724], [90.283, 26.724], [90.286, 26.725], [90.289, 26.725], [90.292, 26.725], [90.296, 26.726], [90.299, 26.726], [90.302, 26.727], [90.305, 26.727], [90.308, 26.728], [90.312, 26.728], [90.315, 26.729], [90.318, 26.729], [90.321, 26.73], [90.325, 26.73], [90.328, 26.731], [90.331, 26.731], [90.685, 26.772], [90.706, 26.776], [90.707, 26.775], [90.709, 26.775], [90.71, 26.775], [90.712, 26.775], [90.713, 26.774], [90.715, 26.774], [90.716, 26.774], [90.718, 26.774], [90.719, 26.774], [90.721, 26.773], [90.722, 26.773], [90.724, 26.773], [90.726, 26.773], [90.727, 26.773], [90.729, 26.773], [90.73, 26.772], [90.732, 26.772], [90.733, 26.772], [90.737, 26.772], [90.74, 26.772], [90.743, 26.771], [90.746, 26.771], [90.75, 26.771], [90.753, 26.771], [90.756, 26.77], [90.759, 26.77], [90.763, 26.77], [90.766, 26.77], [90.769, 26.77], [90.773, 26.77], [90.776, 26.769], [90.78, 26.769], [90.783, 26.769], [90.786, 26.769], [90.79, 26.769], [90.793, 26.769], [90.797, 26.769], [90.8, 26.769], [90.804, 26.769], [90.808, 26.769], [90.811, 26.769], [90.815, 26.769], [90.818, 26.769], [90.822, 26.769], [90.826, 26.769], [90.829, 26.77], [90.833, 26.77], [90.837, 26.77], [90.84, 26.77], [90.844, 26.77], [90.848, 26.77], [90.852, 26.771], [90.856, 26.771], [90.86, 26.771], [90.863, 26.771], [90.867, 26.772], [90.871, 26.772], [90.875, 26.772], [90.879, 26.772], [90.883, 26.773], [90.887, 26.773], [90.891, 26.774], [90.896, 26.774], [90.9, 26.774], [90.904, 26.775], [90.908, 26.775], [90.913, 26.776], [90.917, 26.776], [90.921, 26.777], [90.926, 26.777], [90.93, 26.778], [90.935, 26.778], [90.937, 26.778], [90.939, 26.779], [90.941, 26.779], [90.943, 26.779], [90.945, 26.779], [90.948, 26.78], [90.95, 26.78], [90.952, 26.781], [90.954, 26.781], [90.957, 26.781], [90.959, 26.782], [90.961, 26.782], [90.964, 26.783], [90.966, 26.783], [90.969, 26.784], [90.971, 26.784], [90.973, 26.785], [90.976, 26.785], [90.978, 26.786], [90.98, 26.786], [90.982, 26.786], [90.985, 26.787], [90.987, 26.788], [90.99, 26.788], [90.994, 26.789], [90.999, 26.79], [91.003, 26.791], [91.015, 26.794], [91.021, 26.795], [91.024, 26.796], [91.026, 26.797], [91.029, 26.797], [91.032, 26.798], [91.035, 26.799], [91.037, 26.799], [91.04, 26.8], [91.042, 26.8], [91.045, 26.801], [91.047, 26.801], [91.05, 26.802], [91.052, 26.802], [91.055, 26.803], [91.057, 26.803], [91.059, 26.804], [91.062, 26.804], [91.064, 26.804], [91.066, 26.805], [91.068, 26.805], [91.07, 26.805], [91.073, 26.806], [91.075, 26.806], [91.077, 26.806], [91.079, 26.807], [91.081, 26.807], [91.083, 26.807], [91.085, 26.807], [91.087, 26.808], [91.089, 26.808], [91.092, 26.808], [91.094, 26.808], [91.096, 26.808], [91.098, 26.809], [91.1, 26.809], [91.103, 26.809], [91.105, 26.809], [91.107, 26.809], [91.109, 26.809], [91.111, 26.81], [91.113, 26.81], [91.116, 26.81], [91.118, 26.81], [91.12, 26.81], [91.122, 26.81], [91.124, 26.81], [91.127, 26.811], [91.129, 26.811], [91.131, 26.811], [91.133, 26.811], [91.135, 26.811], [91.138, 26.811], [91.14, 26.811], [91.142, 26.811], [91.144, 26.811], [91.147, 26.811], [91.149, 26.812], [91.151, 26.812], [91.153, 26.812], [91.155, 26.812], [91.158, 26.812], [91.222, 26.819], [91.269, 26.801], [91.321, 26.779], [91.345, 26.781], [91.377, 26.801], [91.413, 26.814], [91.491, 26.8], [91.563, 26.801], [91.624, 26.816], [91.701, 26.816], [91.774, 26.832], [91.855, 26.863], [91.916, 26.868], [91.992, 26.856], [92.1, 26.863], [92.212, 26.898], [92.267, 26.911], [92.365, 26.934], [92.443, 26.936], [92.52, 26.965], [92.614, 26.97], [92.689, 26.952], [92.744, 26.929], [92.808, 26.925], [92.858, 26.937], [92.909, 26.945], [92.96, 26.934], [93.009, 26.914], [93.076, 26.903], [93.16, 26.925], [93.274, 26.946], [93.327, 26.96], [93.392, 26.951], [93.453, 26.946], [93.511, 26.969], [93.569, 26.962], [93.624, 26.978], [93.686, 27.002], [93.745, 27.04], [93.809, 27.064], [93.837, 27.095], [93.86, 27.168], [93.914, 27.218], [93.96, 27.262], [94.023, 27.332], [94.087, 27.372], [94.151, 27.407], [94.21, 27.471], [94.238, 27.52], [94.291, 27.544], [94.478, 27.567], [94.628, 27.631], [94.844, 27.711], [95.076, 27.81], [95.232, 27.901], [95.226, 27.98], [95.238, 28.013], [95.303, 28.03], [95.432, 28.148], [95.536, 28.219], [95.614, 28.27], [95.65, 28.313], [95.727, 28.251], [95.799, 28.175], [95.843, 28.113], [95.949, 28.053], [96.071, 28.038], [96.191, 27.997], [96.235, 27.932], [96.328, 27.83], [96.349, 27.758]]}}, {"type": "Feature", "properties": {"average_dip": "(90.0,,)", "average_rake": "(90.0,,)", "catalog_id": "EOS_AF0167", "catalog_name": "EOS_SE_Asia", "lower_seis_depth": "(15.0,,)", "slip_type": "Reverse", "upper_seis_depth": "(1.0,,)"}, "geometry": {"type": "LineString", "coordinates": [[95.983, 27.631], [95.989, 27.621], [95.997, 27.612], [96.003, 27.605], [96.009, 27.602], [96.015, 27.602], [96.023, 27.602], [96.03, 27.599], [96.035, 27.594], [96.039, 27.589], [96.046, 27.588], [96.052, 27.587], [96.056, 27.585], [96.065, 27.582], [96.085, 27.573], [96.157, 27.528], [96.212, 27.506], [96.298, 27.478]]}}, {"type": "Feature", "properties": {"average_dip": "(90.0,,)", "average_rake": "(180.0,,)", "catalog_id": "EOS_AF0304", "catalog_name": "EOS_SE_Asia", "lower_seis_depth": "(15.0,,)", "slip_type": "Dextral", "upper_seis_depth": "(1.0,,)"}, "geometry": {"type": "LineString", "coordinates": [[95.463, 29.839], [95.656, 29.719], [95.818, 29.616], [95.932, 29.542], [96.031, 29.485], [96.11, 29.438], [96.147, 29.396], [96.186, 29.373], [96.233, 29.339], [96.281, 29.292], [96.394, 29.184], [96.503, 29.075], [96.604, 28.983], [96.619, 28.97], [96.669, 28.886], [96.722, 28.804], [96.781, 28.742], [96.865, 28.664], [96.947, 28.572], [96.997, 28.493], [97.04, 28.45], [97.083, 28.418]]}}]}