{"type": "FeatureCollection", "features": [{"type": "Feature", "properties": {"highway": "unclassified", "id": 0}, "geometry": {"type": "LineString", "coordinates": [[88.27759676337514, 27.295621711701727], [88.36257026959899, 27.350993561669608]]}}, {"type": "Feature", "properties": {"highway": "unclassified", "id": 1}, "geometry": {"type": "LineString", "coordinates": [[88.67756128993497, 27.678113594341188], [88.71404603505395, 27.691286893122893]]}}, {"type": "Feature", "properties": {"highway": "unclassified", "id": 2}, "geometry": {"type": "LineString", "coordinates": [[88.6114127038343, 27.310715385733822], [88.65619342641304, 27.37240149674649]]}}, {"type": "Feature", "properties": {"highway": "unclassified", "id": 3}, "geometry": {"type": "LineString", "coordinates": [[88.62244648767431, 27.48887279360941], [88.58073076761164, 27.442629889372604]]}}, {"type": "Feature", "properties": {"highway": "unclassified", "id": 4}, "geometry": {"type": "LineString", "coordinates": [[88.63525028474795, 28.093202626317854], [88.65797573517519, 28.13]]}}, {"type": "Feature", "properties": {"highway": "unclassified", "id": 5}, "geometry": {"type": "LineString", "coordinates": [[88.47529135541971, 27.390935552096057], [88.49274341736394, 27.28321923351934]]}}, {"type": "Feature", "properties": {"highway": "unclassified", "id": 6}, "geometry": {"type": "LineString", "coordinates": [[88.85952171375135, 27.359505658695372], [88.83630387527907, 27.296560184512067]]}}, {"type": "Feature", "properties": {"highway": "unclassified", "id": 7}, "geometry": {"type": "LineString", "coordinates": [[88.09722550934264, 27.121144258552555], [88.12728094823588, 27.09446155710142]]}}, {"type": "Feature", "properties": {"highway": "unclassified", "id": 8}, "geometry": {"type": "LineString", "coordinates": [[88.78978978096143, 27.768186951477578], [88.71949139921949, 27.8149722445937]]}}, {"type": "Feature", "properties": {"highway": "unclassified", "id": 9}, "geometry": {"type": "LineString", "coordinates": [[88.551902471513, 27.583733359361247], [88.45360124198272, 27.623955423100917]]}}, {"type": "Feature", "properties": {"highway": "unclassified", "id": 10}, "geometry": {"type": "LineString", "coordinates": [[88.57075675271442, 28.008231324262304], [88.46782881830828, 28.009488565782345]]}}, {"type": "Feature", "properties": {"highway": "unclassified", "id": 11}, "geometry": {"type": "LineString", "coordinates": [[88.31529359842386, 27.78254548896787], [88.33051891114438, 27.853206654493277]]}}, {"type": "Feature", "properties": {"highway": "unclassified", "id": 12}, "geometry": {"type": "LineString", "coordinates": [[88.0359018408265, 27.11379507028088], [88.0, 27.13817909483512]]}}, {"type": "Feature", "properties": {"highway": "unclassified", "id": 13}, "geometry": {"type": "LineString", "coordinates": [[88.77672038036383, 28.01443958621529], [88.8344315710561, 28.00480726391944]]}}, {"type": "Feature", "properties": {"highway": "unclassified", "id": 14}, "geometry": {"type": "LineString", "coordinates": [[88.71227148222023, 27.669030072518552], [88.73241895787908, 27.726309467716746]]}}, {"type": "Feature", "properties": {"highway": "unclassified", "id": 15}, "geometry": {"type": "LineString", "coordinates": [[88.16852179039482, 27.19410802704247], [88.22960004353614, 27.24636202295685]]}}, {"type": "Feature", "properties": {"highway": "unclassified", "id": 16}, "geometry": {"type": "LineString", "coordinates": [[88.77468717669524, 27.022499146186288], [88.74617769796464, 27.03164681244203]]}}, {"type": "Feature", "properties": {"highway": "unclassified", "id": 17}, "geometry": {"type": "LineString", "coordinates": [[88.57685333979671, 27.552003387584886], [88.64186921294794, 27.524997829773657]]}}, {"type": "Feature", "properties": {"highway": "unclassified", "id": 18}, "geometry": {"type": "LineString", "coordinates": [[88.53425384303117, 27.8479481516305], [88.45259586273276, 27.844584863368553]]}}, {"type": "Feature", "properties": {"highway": "unclassified", "id": 19}, "geometry": {"type": "LineString", "coordinates": [[88.210762238924, 28.09018084402915], [88.1271336939434, 28.060015317839557]]}}, {"type": "Feature", "properties": {"highway": "unclassified", "id": 20}, "geometry": {"type": "LineString", "coordinates": [[88.27541949979887, 27.047473321647615], [88.29970703843567, 27.0]]}}, {"type": "Feature", "properties": {"highway": "unclassified", "id": 21}, "geometry": {"type": "LineString", "coordinates": [[88.27586248658635, 27.014499135689338], [88.28567605296512, 27.0]]}}, {"type": "Feature", "properties": {"highway": "unclassified", "id": 22}, "geometry": {"type": "LineString", "coordinates": [[88.05343331626058, 27.12471537930924], [88.0, 27.164141872513056]]}}, {"type": "Feature", "properties": {"highway": "unclassified", "id": 23}, "geometry": {"type": "LineString", "coordinates": [[88.04558245229367, 27.359784088941954], [88.00630391489197, 27.403754789325927]]}}, {"type": "Feature", "properties": {"highway": "unclassified", "id": 24}, "geometry": {"type": "LineString", "coordinates": [[88.00631048382778, 27.591533290502674], [88.01498799619684, 27.625230210832036]]}}, {"type": "Feature", "properties": {"highway": "unclassified", "id": 25}, "geometry": {"type": "LineString", "coordinates": [[88.28114213066817, 27.497770106186028], [88.2631842531734, 27.57709559849043]]}}, {"type": "Feature", "properties": {"highway": "unclassified", "id": 26}, "geometry": {"type": "LineString", "coordinates": [[88.89453906112422, 28.027885301395393], [88.9011392880986, 28.052975169827175]]}}, {"type": "Feature", "properties": {"highway": "unclassified", "id": 27}, "geometry": {"type": "LineString", "coordinates": [[88.7167140134201, 27.636216197079175], [88.72722971281563, 27.660434124601718]]}}, {"type": "Feature", "properties": {"highway": "unclassified", "id": 28}, "geometry": {"type": "LineString", "coordinates": [[88.62188240545167, 27.516093737510477], [88.69586711475455, 27.434242726923543]]}}, {"type": "Feature", "properties": {"highway": "unclassified", "id": 29}, "geometry": {"type": "LineString", "coordinates": [[88.04904089334019, 27.89694361942263], [88.0, 27.819337788571715]]}}, {"type": "Feature", "properties": {"highway": "unclassified", "id": 30}, "geometry": {"type": "LineString", "coordinates": [[88.23708376111249, 27.097310871177637], [88.17530028482001, 27.15134025883416]]}}, {"type": "Feature", "properties": {"highway": "unclassified", "id": 31}, "geometry": {"type": "LineString", "coordinates": [[88.74826411100685, 27.504661927304312], [88.65025403142243, 27.474990076554683]]}}, {"type": "Feature", "properties": {"highway": "unclassified", "id": 32}, "geometry": {"type": "LineString", "coordinates": [[88.37758458405655, 27.895469747581522], [88.28485434894328, 27.823392154962555]]}}, {"type": "Feature", "properties": {"highway": "unclassified", "id": 33}, "geometry": {"type": "LineString", "coordinates": [[88.04090855361245, 28.093498720436102], [88.0, 28.05403638142755]]}}, {"type": "Feature", "properties": {"highway": "unclassified", "id": 34}, "geometry": {"type": "LineString", "coordinates": [[88.17911332710248, 27.80641210498344], [88.16082332518263, 27.8790128184414]]}}, {"type": "Feature", "properties": {"highway": "unclassified", "id": 35}, "geometry": {"type": "LineString", "coordinates": [[88.00296369667485, 27.119192938859378], [88.0, 27.02189839898266]]}}, {"type": "Feature", "properties": {"highway": "unclassified", "id": 36}, "geometry": {"type": "LineString", "coordinates": [[88.23977137013335, 27.231674556783155], [88.26746125988461, 27.171148299003043]]}}, {"type": "Feature", "properties": {"highway": "unclassified", "id": 37}, "geometry": {"type": "LineString", "coordinates": [[88.90003989205228, 27.132916931252684], [88.90387717660742, 27.247243628321744]]}}, {"type": "Feature", "properties": {"highway": "unclassified", "id": 38}, "geometry": {"type": "LineString", "coordinates": [[88.33489070547246, 27.724083501237182], [88.41157159203084, 27.770687508388576]]}}, {"type": "Feature", "properties": {"highway": "unclassified", "id": 39}, "geometry": {"type": "LineString", "coordinates": [[88.54729644743179, 27.531061444633263], [88.518226191058, 27.453695162474396]]}}]}