{
 "type": "FeatureCollection",
 "features": [
  {
   "type": "Feature",
   "properties": {
    "name": null,
    "slip_type": "Normal",
    "catalog_name": "HimaTibetMap"
   },
   "geometry": {
    "type": "LineString",
    "coordinates": [
     [
      90.15134527867265,
      29.096407656444892
     ],
     [
      90.0339543852711,
      28.99206019564352
     ],
     [
      89.96873722227025,
      28.91379960004249
     ],
     [
      89.91656349186955,
      28.835539004441465
     ],
     [
      89.87743319406904,
      28.78336527404078
     ],
     [
      89.8513463288687,
      28.639887515438893
     ],
     [
      89.8513463288687,
      28.53554005463752
     ],
     [
      89.90352005926938,
      28.405105728635807
     ],
     [
      89.96873722227025,
      28.326845133034777
     ]
    ]
   }
  },
  {
   "type": "Feature",
   "properties": {
    "name": null,
    "slip_type": "Reverse",
    "catalog_name": "HimaTibetMap"
   },
   "geometry": {
    "type": "LineString",
    "coordinates": [
     [
      86.05977779278737,
      26.916563033174942
     ],
     [
      86.17280864098306,
      26.865185374904172
     ],
     [
      86.2961150208329,
      26.865185374904172
     ],
     [
      86.41428363485568,
      26.860047609077096
     ],
     [
      86.55300331218675,
      26.824083248287558
     ]
    ]
   }
  },
  {
   "type": "Feature",
   "properties": {
    "name": null,
    "slip_type": "Reverse",
    "catalog_name": "HimaTibetMap"
   },
   "geometry": {
    "type": "LineString",
    "coordinates": [
     [
      86.53245224887844,
      26.695639102610635
     ],
     [
      86.78934054023229,
      26.66995027347525
     ],
     [
      86.90237138842798,
      26.675088039302327
     ],
     [
      86.97943787583414,
      26.772705590016788
     ]
    ]
   }
  },
  {
   "type": "Feature",
   "properties": {
    "name": null,
    "slip_type": "Reverse",
    "catalog_name": "HimaTibetMap"
   },
   "geometry": {
    "type": "LineString",
    "coordinates": [
     [
      87.03338441701842,
      26.80353218497925
     ],
     [
      87.23375728427442,
      26.80353218497925
     ],
     [
      87.49578334145535,
      26.741878995054325
     ],
     [
      87.67046737957597,
      26.741878995054325
     ],
     [
      87.79891152525289,
      26.69050133678356
     ],
     [
      87.99928439250888,
      26.716190165918942
     ],
     [
      88.18938172811073,
      26.777843355843864
     ],
     [
      88.45140778529165,
      26.860047609077096
     ],
     [
      88.65691841837473,
      26.90114973569371
     ],
     [
      88.78536256405165,
      26.916563033174942
     ],
     [
      88.96004660217227,
      26.921700799002018
     ],
     [
      89.04738862123257,
      26.875460906558327
     ],
     [
      89.1963838302178,
      26.741878995054325
     ],
     [
      89.29913914675934,
      26.76756782418971
     ]
    ]
   }
  },
  {
   "type": "Feature",
   "properties": {
    "name": null,
    "slip_type": "Reverse",
    "catalog_name": "HimaTibetMap"
   },
   "geometry": {
    "type": "LineString",
    "coordinates": [
     [
      89.3762056341655,
      26.860047609077096
     ],
     [
      89.54575190645903,
      26.741878995054325
     ],
     [
      89.75640030536918,
      26.68536357095648
     ],
     [
      89.96704870427934,
      26.716190165918942
     ],
     [
      90.13659497657288,
      26.793256653325095
     ],
     [
      90.27531465390396,
      26.870323140731248
     ]
    ]
   }
  },
  {
   "type": "Feature",
   "properties": {
    "name": null,
    "slip_type": "Reverse",
    "catalog_name": "HimaTibetMap"
   },
   "geometry": {
    "type": "LineString",
    "coordinates": [
     [
      90.39605215084026,
      26.896011969866635
     ],
     [
      90.54504735982549,
      26.813807716633402
     ],
     [
      90.84303777779596,
      26.798394419152174
     ],
     [
      91.08451277166857,
      26.824083248287558
     ],
     [
      91.29002340475165,
      26.782981121670943
     ],
     [
      91.57773829106794,
      26.782981121670943
     ],
     [
      91.76269786084272,
      26.829221014114633
     ],
     [
      91.99903508888826,
      26.865185374904172
     ],
     [
      92.34840316512948,
      26.926838564829097
     ],
     [
      92.53336273490426,
      26.931976330656173
     ],
     [
      92.68749570971656,
      26.916563033174942
     ],
     [
      92.84162868452887,
      26.916563033174942
     ]
    ]
   }
  },
  {
   "type": "Feature",
   "properties": {
    "name": null,
    "slip_type": "Normal",
    "catalog_name": "HimaTibetMap"
   },
   "geometry": {
    "type": "LineString",
    "coordinates": [
     [
      86.51547266478754,
      28.63450847392339
     ],
     [
      86.47612587080819,
      28.71757392787978
     ],
     [
      86.46431806070032,
      28.780398204386163
     ],
     [
      86.47612587080819,
      28.831242443820106
     ],
     [
      86.49106298441382,
      28.845350161976068
     ],
     [
      86.46813876408797,
      28.875915789077197
     ],
     [
      86.442157981052,
      28.942396028022156
     ],
     [
      86.41694133869358,
      29.01040454832217
     ],
     [
      86.39860196243289,
      29.083762053364886
     ],
     [
      86.37262117939693,
      29.121204946563772
     ],
     [
      86.34918753195274,
      29.141964101636624
     ],
     [
      86.33696128111228,
      29.151133789766963
     ],
     [
      86.32371617603512,
      29.159284623660596
     ],
     [
      86.30843336248456,
      29.170492020264344
     ],
     [
      86.29824482011752,
      29.178642854157978
     ],
     [
      86.28398086080365,
      29.188831396525025
     ]
    ]
   }
  },
  {
   "type": "Feature",
   "properties": {
    "name": null,
    "slip_type": "Normal",
    "catalog_name": "HimaTibetMap"
   },
   "geometry": {
    "type": "LineString",
    "coordinates": [
     [
      88.22217743229018,
      29.65886112880602
     ],
     [
      88.18579904974872,
      29.633772589122252
     ],
     [
      88.16949149895427,
      29.59363092562822
     ],
     [
      88.17200035292264,
      29.533418430387172
     ],
     [
      88.18329019578034,
      29.480732497051253
     ],
     [
      88.1757636338752,
      29.40797573196832
     ],
     [
      88.13813082434956,
      29.36030750656916
     ],
     [
      88.12809540847604,
      29.325183551011882
     ],
     [
      88.12056884657092,
      29.278769752596908
     ],
     [
      88.10300686879228,
      29.24991793196057
     ],
     [
      88.10175244180809,
      29.231101527197744
     ]
    ]
   }
  },
  {
   "type": "Feature",
   "properties": {
    "name": null,
    "slip_type": "Normal",
    "catalog_name": "HimaTibetMap"
   },
   "geometry": {
    "type": "LineString",
    "coordinates": [
     [
      90.2806921133435,
      29.677677533568847
     ],
     [
      90.24180487683367,
      29.612447330391046
     ],
     [
      90.23929602286529,
      29.555998116102565
     ],
     [
      90.24055044984948,
      29.480732497051253
     ],
     [
      90.24055044984948,
      29.45313510339911
     ],
     [
      90.2154619101657,
      29.420520001810207
     ]
    ]
   }
  },
  {
   "type": "Feature",
   "properties": {
    "name": null,
    "slip_type": "Anticline",
    "catalog_name": "HimaTibetMap"
   },
   "geometry": {
    "type": "LineString",
    "coordinates": [
     [
      90.03349374259997,
      25.687715336998743
     ],
     [
      90.1470011901124,
      25.585558634237557
     ],
     [
      90.28888549950294,
      25.494752676227616
     ],
     [
      90.41941906414223,
      25.472051186725132
     ],
     [
      90.51022502215217,
      25.443674324847024
     ],
     [
      90.6237324696646,
      25.403946718217675
     ],
     [
      90.69751231054768,
      25.352868366837082
     ]
    ]
   }
  },
  {
   "type": "Feature",
   "properties": {
    "name": null,
    "slip_type": "Normal",
    "catalog_name": "HimaTibetMap"
   },
   "geometry": {
    "type": "LineString",
    "coordinates": [
     [
      88.96802920651075,
      27.558484775607397
     ],
     [
      89.08800889629502,
      27.64194890763124
     ],
     [
      89.19233906132483,
      27.735846056158064
     ],
     [
      89.27058668509717,
      27.876691778948295
     ],
     [
      89.33840129236656,
      27.9288568614632
     ],
     [
      89.42186542439039,
      27.965372419223627
     ],
     [
      89.43751494914487,
      28.101001633762372
     ],
     [
      89.48968003165976,
      28.132300683271314
     ],
     [
      89.56792765543211,
      28.231414340049625
     ],
     [
      89.60965972144403,
      28.27836291431304
     ]
    ]
   }
  },
  {
   "type": "Feature",
   "properties": {
    "name": null,
    "slip_type": "Sinistral",
    "catalog_name": "HimaTibetMap"
   },
   "geometry": {
    "type": "LineString",
    "coordinates": [
     [
      87.84647993244036,
      28.08013560075641
     ],
     [
      88.11773836151785,
      28.085352109007903
     ],
     [
      88.3055326585715,
      28.101001633762372
     ],
     [
      88.48811044737366,
      28.121867666768335
     ],
     [
      88.59244061240346,
      28.132300683271314
     ],
     [
      88.76458538470263,
      28.174032749283235
     ]
    ]
   }
  },
  {
   "type": "Feature",
   "properties": {
    "name": null,
    "slip_type": "Sinistral",
    "catalog_name": "HimaTibetMap"
   },
   "geometry": {
    "type": "LineString",
    "coordinates": [
     [
      87.72650024265609,
      28.179249257534725
     ],
     [
      87.9351605727157,
      28.215764815295156
     ],
     [
      88.12295486976934,
      28.262713389558566
     ],
     [
      88.34726472458343,
      28.27836291431304
     ],
     [
      88.49332695562515,
      28.309661963821977
     ],
     [
      88.7332863351937,
      28.294012439067508
     ],
     [
      88.9367301570018,
      28.273146406061546
     ],
     [
      89.10365842104949,
      28.28879593081602
     ],
     [
      89.24972065209121,
      28.304445455570487
     ],
     [
      89.42708193264188,
      28.34096101333092
     ],
     [
      89.5261955894202,
      28.37747657109135
     ]
    ]
   }
  },
  {
   "type": "Feature",
   "properties": {
    "name": null,
    "slip_type": "Normal",
    "catalog_name": "HimaTibetMap"
   },
   "geometry": {
    "type": "LineString",
    "coordinates": [
     [
      87.85570114104247,
      28.62684408283872
     ],
     [
      87.86874457364264,
      28.70510467843975
     ],
     [
      87.90787487144316,
      28.79640870664095
     ],
     [
      87.90787487144316,
      28.874669302241976
     ],
     [
      87.90787487144316,
      28.97901676304335
     ],
     [
      87.98613546704418,
      29.070320791244548
     ]
    ]
   }
  },
  {
   "type": "Feature",
   "properties": {
    "name": null,
    "slip_type": "Normal",
    "catalog_name": "HimaTibetMap"
   },
   "geometry": {
    "type": "LineString",
    "coordinates": [
     [
      87.36428236479966,
      28.100711976073907
     ],
     [
      87.36618593360433,
      28.116892310913553
     ],
     [
      87.36713771800666,
      28.126410154936874
     ],
     [
      87.36618593360433,
      28.136879783362524
     ],
     [
      87.36999307121366,
      28.150204764995173
     ],
     [
      87.37380020882298,
      28.164481531030155
     ],
     [
      87.37475199322532,
      28.17590294385814
     ],
     [
      87.37380020882298,
      28.18922792549079
     ],
     [
      87.37665556202998,
      28.2073118291351
     ],
     [
      87.37760734643231,
      28.21587788875609
     ],
     [
      87.37951091523698,
      28.228251085986408
     ],
     [
      87.38236626844397,
      28.240624283216725
     ],
     [
      87.38236626844397,
      28.25109391164238
     ],
     [
      87.3861734060533,
      28.25680461805637
     ],
     [
      87.39378768127196,
      28.271081384091353
     ],
     [
      87.40045017208828,
      28.281551012517006
     ],
     [
      87.40425730969761,
      28.28916528773566
     ],
     [
      87.41091980051394,
      28.290117072137992
     ],
     [
      87.42424478214659,
      28.29297242534499
     ],
     [
      87.43566619497457,
      28.300586700563645
     ],
     [
      87.4423286857909,
      28.310104544586967
     ],
     [
      87.45660545182588,
      28.32057417301262
     ],
     [
      87.48515898389584,
      28.319622388610288
     ],
     [
      87.49943574993083,
      28.321525957414952
     ],
     [
      87.52037500678213,
      28.32533309502428
     ],
     [
      87.54131426363344,
      28.32914023263361
     ],
     [
      87.55463924526609,
      28.331995585840605
     ],
     [
      87.5698677957034,
      28.337706292254598
     ],
     [
      87.58224099293372,
      28.33865807665693
     ],
     [
      87.5965177589687,
      28.344368783070923
     ],
     [
      87.60984274060135,
      28.350079489484916
     ],
     [
      87.63554091946432,
      28.359597333508237
     ],
     [
      87.6498176854993,
      28.372922315140887
     ],
     [
      87.67266051115527,
      28.390054434382865
     ],
     [
      87.69074441479958,
      28.411945475636504
     ],
     [
      87.70216582762757,
      28.430981163683146
     ],
     [
      87.70216582762757,
      28.44335436091346
     ],
     [
      87.70216582762757,
      28.458582911350774
     ],
     [
      87.7059729652369,
      28.477618599397417
     ],
     [
      87.70978010284622,
      28.49284714983473
     ],
     [
      87.71358724045555,
      28.512834622283705
     ],
     [
      87.72024973127188,
      28.542339938756
     ],
     [
      87.71929794686955,
      28.5689899020213
     ],
     [
      87.71168367165089,
      28.59754343409126
     ]
    ]
   }
  },
  {
   "type": "Feature",
   "properties": {
    "name": null,
    "slip_type": "Normal",
    "catalog_name": "HimaTibetMap"
   },
   "geometry": {
    "type": "LineString",
    "coordinates": [
     [
      87.78378134012752,
      28.476547841944775
     ],
     [
      87.78497107063043,
      28.456322423395218
     ],
     [
      87.78021214861877,
      28.442045657360236
     ],
     [
      87.77545322660711,
      28.425389430319424
     ],
     [
      87.76831484358962,
      28.40159482026112
     ],
     [
      87.75998673006922,
      28.388507784729054
     ],
     [
      87.7587969995663,
      28.370661827185327
     ],
     [
      87.73976131151966,
      28.354005600144514
     ],
     [
      87.73143319799925,
      28.342108295115363
     ],
     [
      87.72429481498176,
      28.331400720589127
     ],
     [
      87.7195358929701,
      28.319503415559975
     ],
     [
      87.71358724045552,
      28.30641638002791
     ],
     [
      87.71001804894678,
      28.292139613992926
     ],
     [
      87.70525912693512,
      28.285001230975436
     ],
     [
      87.70168993542637,
      28.273103925946284
     ],
     [
      87.69693101341471,
      28.262396351420048
     ],
     [
      87.69098236090014,
      28.25287850739673
     ],
     [
      87.68503370838556,
      28.24336066337341
     ],
     [
      87.68146451687682,
      28.233842819350087
     ],
     [
      87.6802747863739,
      28.22313524482385
     ],
     [
      87.6802747863739,
      28.214807131303445
     ],
     [
      87.67789532536807,
      28.205289287280124
     ],
     [
      87.67432613385932,
      28.195771443256803
     ],
     [
      87.6719466728535,
      28.18625359923348
     ],
     [
      87.66361855933309,
      28.17435629420433
     ],
     [
      87.65529044581268,
      28.160079528169348
     ],
     [
      87.65053152380102,
      28.151751414648942
     ],
     [
      87.64696233229228,
      28.14223357062562
     ],
     [
      87.64220341028062,
      28.126767074087724
     ],
     [
      87.64220341028062,
      28.11011084704691
     ],
     [
      87.64696233229228,
      28.10059300302359
     ],
     [
      87.64339314078353,
      28.08631623698861
     ],
     [
      87.64220341028062,
      28.075608662462372
     ],
     [
      87.63744448826895,
      28.06133189642739
     ],
     [
      87.63387529676021,
      28.042296208380748
     ],
     [
      87.63387529676021,
      28.03396809486034
     ],
     [
      87.63030610525146,
      28.02207078983119
     ],
     [
      87.62911637474855,
      28.004224832287463
     ],
     [
      87.62673691374272,
      27.98756860524665
     ]
    ]
   }
  },
  {
   "type": "Feature",
   "properties": {
    "name": null,
    "slip_type": "Normal",
    "catalog_name": "HimaTibetMap"
   },
   "geometry": {
    "type": "LineString",
    "coordinates": [
     [
      86.58542252075081,
      28.227924936136848
     ],
     [
      86.6597442427118,
      28.402799576045037
     ],
     [
      86.6597442427118,
      28.507724359989954
     ],
     [
      86.61165371673704,
      28.603905411939458
     ]
    ]
   }
  },
  {
   "type": "Feature",
   "properties": {
    "name": null,
    "slip_type": "Reverse",
    "catalog_name": "EOS_SE_Asia"
   },
   "geometry": {
    "type": "LineString",
    "coordinates": [
     [
      89.391,
      26.843
     ],
     [
      89.393,
      26.843
     ],
     [
      89.394,
      26.842
     ],
     [
      89.396,
      26.842
     ],
     [
      89.397,
      26.841
     ],
     [
      89.399,
      26.841
     ],
     [
      89.4,
      26.84
     ],
     [
      89.402,
      26.84
     ],
     [
      89.403,
      26.839
     ],
     [
      89.405,
      26.839
     ],
     [
      89.406,
      26.838
     ],
     [
      89.408,
      26.838
     ],
     [
      89.409,
      26.837
     ],
     [
      89.411,
      26.836
     ],
     [
      89.412,
      26.836
     ],
     [
      89.414,
      26.835
     ],
     [
      89.415,
      26.835
     ],
     [
      89.417,
      26.834
     ],
     [
      89.418,
      26.834
     ],
     [
      89.42,
      26.833
     ],
     [
      89.421,
      26.833
     ],
     [
      89.423,
      26.832
     ],
     [
      89.424,
      26.831
     ],
     [
      89.425,
      26.831
     ],
     [
      89.427,
      26.83
     ],
     [
      89.428,
      26.83
     ],
     [
      89.43,
      26.829
     ],
     [
      89.431,
      26.828
     ],
     [
      89.433,
      26.828
     ],
     [
      89.434,
      26.827
     ],
     [
      89.436,
      26.827
     ],
     [
      89.437,
      26.826
     ],
     [
      89.438,
      26.825
     ],
     [
      89.44,
      26.825
     ],
     [
      89.441,
      26.824
     ],
     [
      89.443,
      26.823
     ],
     [
      89.444,
      26.823
     ],
     [
      89.446,
      26.822
     ],
     [
      89.447,
      26.821
     ],
     [
      89.448,
      26.821
     ],
     [
      89.45,
      26.82
     ],
     [
      89.451,
      26.82
     ],
     [
      89.453,
      26.819
     ],
     [
      89.454,
      26.818
     ],
     [
      89.455,
      26.818
     ],
     [
      89.457,
      26.817
     ],
     [
      89.458,
      26.816
     ],
     [
      89.46,
      26.815
     ],
     [
      89.461,
      26.815
     ],
     [
      89.462,
      26.814
     ],
     [
      89.464,
      26.813
     ],
     [
      89.465,
      26.813
     ],
     [
      89.466,
      26.812
     ],
     [
      89.468,
      26.811
     ],
     [
      89.469,
      26.811
     ],
     [
      89.471,
      26.81
     ],
     [
      89.472,
      26.809
     ],
     [
      89.473,
      26.808
     ],
     [
      89.475,
      26.808
     ],
     [
      89.476,
      26.807
     ],
     [
      89.477,
      26.806
     ],
     [
      89.479,
      26.806
     ],
     [
      89.48,
      26.805
     ],
     [
      89.481,
      26.804
     ],
     [
      89.483,
      26.803
     ],
     [
      89.483,
      26.803
     ],
     [
      89.484,
      26.802
     ],
     [
      89.485,
      26.802
     ],
     [
      89.486,
      26.802
     ],
     [
      89.487,
      26.801
     ],
     [
      89.487,
      26.801
     ],
     [
      89.488,
      26.8
     ],
     [
      89.489,
      26.8
     ],
     [
      89.49,
      26.799
     ],
     [
      89.491,
      26.799
     ],
     [
      89.491,
      26.798
     ],
     [
      89.492,
      26.798
     ],
     [
      89.493,
      26.797
     ],
     [
      89.494,
      26.796
     ],
     [
      89.495,
      26.796
     ],
     [
      89.495,
      26.795
     ],
     [
      89.496,
      26.795
     ],
     [
      89.497,
      26.794
     ],
     [
      89.498,
      26.794
     ],
     [
      89.499,
      26.793
     ],
     [
      89.499,
      26.792
     ],
     [
      89.5,
      26.792
     ],
     [
      89.501,
      26.791
     ],
     [
      89.502,
      26.791
     ],
     [
      89.503,
      26.79
     ],
     [
      89.504,
      26.789
     ],
     [
      89.504,
      26.789
     ],
     [
      89.505,
      26.788
     ],
     [
      89.506,
      26.787
     ],
     [
      89.507,
      26.787
     ],
     [
      89.508,
      26.786
     ],
     [
      89.509,
      26.785
     ],
     [
      89.509,
      26.785
     ],
     [
      89.51,
      26.784
     ],
     [
      89.511,
      26.784
     ],
     [
      89.511,
      26.783
     ],
     [
      89.512,
      26.782
     ],
     [
      89.513,
      26.782
     ],
     [
      89.514,
      26.78
     ],
     [
      89.516,
      26.779
     ],
     [
      89.517,
      26.778
     ],
     [
      89.519,
      26.776
     ],
     [
      89.521,
      26.775
     ],
     [
      89.522,
      26.774
     ],
     [
      89.524,
      26.772
     ],
     [
      89.525,
      26.771
     ],
     [
      89.527,
      26.769
     ],
     [
      89.53,
      26.767
     ],
     [
      89.535,
      26.762
     ],
     [
      89.537,
      26.76
     ],
     [
      89.539,
      26.758
     ],
     [
      89.541,
      26.756
     ],
     [
      89.543,
      26.754
     ],
     [
      89.545,
      26.752
     ],
     [
      89.547,
      26.751
     ],
     [
      89.548,
      26.75
     ],
     [
      89.549,
      26.749
     ],
     [
      89.55,
      26.748
     ],
     [
      89.551,
      26.747
     ],
     [
      89.552,
      26.746
     ],
     [
      89.553,
      26.746
     ],
     [
      89.554,
      26.745
     ],
     [
      89.555,
      26.744
     ],
     [
      89.556,
      26.743
     ],
     [
      89.556,
      26.743
     ],
     [
      89.557,
      26.742
     ],
     [
      89.558,
      26.741
     ],
     [
      89.559,
      26.74
     ],
     [
      89.56,
      26.74
     ],
     [
      89.561,
      26.739
     ],
     [
      89.562,
      26.738
     ],
     [
      89.563,
      26.738
     ],
     [
      89.564,
      26.737
     ],
     [
      89.565,
      26.736
     ],
     [
      89.565,
      26.735
     ],
     [
      89.566,
      26.735
     ],
     [
      89.567,
      26.734
     ],
     [
      89.568,
      26.733
     ],
     [
      89.569,
      26.733
     ],
     [
      89.57,
      26.732
     ],
     [
      89.571,
      26.731
     ],
     [
      89.572,
      26.731
     ],
     [
      89.573,
      26.73
     ],
     [
      89.574,
      26.73
     ],
     [
      89.575,
      26.729
     ],
     [
      89.576,
      26.728
     ],
     [
      89.577,
      26.728
     ],
     [
      89.578,
      26.727
     ],
     [
      89.578,
      26.727
     ],
     [
      89.579,
      26.726
     ],
     [
      89.58,
      26.726
     ],
     [
      89.581,
      26.725
     ],
     [
      89.582,
      26.725
     ],
     [
      89.583,
      26.724
     ],
     [
      89.584,
      26.724
     ],
     [
      89.585,
      26.723
     ],
     [
      89.586,
      26.723
     ],
     [
      89.587,
      26.722
     ],
     [
      89.588,
      26.722
     ],
     [
      89.588,
      26.721
     ],
     [
      89.589,
      26.721
     ],
     [
      89.59,
      26.72
     ],
     [
      89.591,
      26.72
     ],
     [
      89.592,
      26.719
     ],
     [
      89.593,
      26.719
     ],
     [
      89.596,
      26.718
     ],
     [
      89.598,
      26.717
     ],
     [
      89.6,
      26.716
     ],
     [
      89.601,
      26.715
     ],
     [
      89.603,
      26.715
     ],
     [
      89.604,
      26.714
     ],
     [
      89.606,
      26.714
     ],
     [
      89.607,
      26.713
     ],
     [
      89.609,
      26.712
     ],
     [
      89.61,
      26.712
     ],
     [
      89.612,
      26.711
     ],
     [
      89.613,
      26.711
     ],
     [
      89.614,
      26.71
     ],
     [
      89.616,
      26.71
     ],
     [
      89.617,
      26.709
     ],
     [
      89.618,
      26.709
     ],
     [
      89.62,
      26.708
     ],
     [
      89.621,
      26.708
     ],
     [
      89.622,
      26.707
     ],
     [
      89.624,
      26.707
     ],
     [
      89.625,
      26.706
     ],
     [
      89.626,
      26.706
     ],
     [
      89.627,
      26.705
     ],
     [
      89.629,
      26.705
     ],
     [
      89.63,
      26.705
     ],
     [
      89.631,
      26.704
     ],
     [
      89.632,
      26.704
     ],
     [
      89.634,
      26.703
     ],
     [
      89.635,
      26.703
     ],
     [
      89.636,
      26.703
     ],
     [
      89.637,
      26.702
     ],
     [
      89.638,
      26.702
     ],
     [
      89.64,
      26.702
     ],
     [
      89.641,
      26.701
     ],
     [
      89.642,
      26.701
     ],
     [
      89.643,
      26.701
     ],
     [
      89.644,
      26.7
     ],
     [
      89.645,
      26.7
     ],
     [
      89.647,
      26.7
     ],
     [
      89.648,
      26.7
     ],
     [
      89.649,
      26.699
     ],
     [
      89.65,
      26.699
     ],
     [
      89.651,
      26.699
     ],
     [
      89.652,
      26.699
     ],
     [
      89.653,
      26.698
     ],
     [
      89.654,
      26.698
     ],
     [
      89.656,
      26.698
     ],
     [
      89.657,
      26.698
     ],
     [
      89.658,
      26.698
     ],
     [
      89.659,
      26.697
     ],
     [
      89.66,
      26.697
     ],
     [
      89.661,
      26.697
     ],
     [
      89.662,
      26.697
     ],
     [
      89.663,
      26.697
     ],
     [
      89.664,
      26.697
     ],
     [
      89.665,
      26.697
     ],
     [
      89.666,
      26.696
     ],
     [
      89.667,
      26.696
     ],
     [
      89.669,
      26.696
     ],
     [
      89.67,
      26.696
     ],
     [
      89.671,
      26.696
     ],
     [
      89.672,
      26.696
     ],
     [
      89.673,
      26.696
     ],
     [
      89.673,
      26.696
     ],
     [
      89.674,
      26.696
     ],
     [
      89.677,
      26.696
     ],
     [
      89.678,
      26.696
     ],
     [
      89.679,
      26.696
     ],
     [
      89.68,
      26.695
     ],
     [
      89.681,
      26.695
     ],
     [
      89.681,
      26.695
     ],
     [
      89.682,
      26.695
     ],
     [
      89.682,
      26.695
     ],
     [
      89.683,
      26.695
     ],
     [
      89.683,
      26.695
     ],
     [
      89.684,
      26.695
     ],
     [
      89.684,
      26.695
     ],
     [
      89.685,
      26.695
     ],
     [
      89.685,
      26.695
     ],
     [
      89.686,
      26.695
     ],
     [
      89.686,
      26.695
     ],
     [
      89.687,
      26.695
     ],
     [
      89.687,
      26.695
     ],
     [
      89.688,
      26.695
     ],
     [
      89.688,
      26.696
     ],
     [
      89.689,
      26.696
     ],
     [
      89.689,
      26.696
     ],
     [
      89.689,
      26.696
     ],
     [
      89.69,
      26.696
     ],
     [
      89.69,
      26.696
     ],
     [
      89.691,
      26.696
     ],
     [
      89.691,
      26.696
     ],
     [
      89.691,
      26.696
     ],
     [
      89.692,
      26.696
     ],
     [
      89.692,
      26.696
     ],
     [
      89.692,
      26.696
     ],
     [
      89.692,
      26.696
     ],
     [
      89.693,
      26.696
     ],
     [
      89.693,
      26.696
     ],
     [
      89.693,
      26.696
     ],
     [
      89.693,
      26.696
     ],
     [
      89.694,
      26.696
     ],
     [
      89.694,
      26.696
     ],
     [
      89.694,
      26.697
     ],
     [
      89.694,
      26.697
     ],
     [
      89.695,
      26.697
     ],
     [
      89.695,
      26.697
     ],
     [
      89.695,
      26.697
     ],
     [
      89.695,
      26.697
     ],
     [
      89.695,
      26.697
     ],
     [
      89.696,
      26.697
     ],
     [
      89.696,
      26.697
     ],
     [
      89.696,
      26.697
     ],
     [
      89.696,
      26.697
     ],
     [
      89.697,
      26.697
     ],
     [
      89.697,
      26.698
     ],
     [
      89.697,
      26.698
     ],
     [
      89.697,
      26.698
     ],
     [
      89.698,
      26.698
     ],
     [
      89.698,
      26.698
     ],
     [
      89.698,
      26.698
     ],
     [
      89.698,
      26.698
     ],
     [
      89.699,
      26.698
     ],
     [
      89.699,
      26.699
     ],
     [
      89.699,
      26.699
     ],
     [
      89.7,
      26.699
     ],
     [
      89.7,
      26.699
     ],
     [
      89.701,
      26.699
     ],
     [
      89.701,
      26.7
     ],
     [
      89.702,
      26.7
     ],
     [
      89.702,
      26.7
     ],
     [
      89.703,
      26.701
     ],
     [
      89.703,
      26.701
     ],
     [
      89.704,
      26.701
     ],
     [
      89.704,
      26.702
     ],
     [
      89.705,
      26.702
     ],
     [
      89.705,
      26.702
     ],
     [
      89.706,
      26.703
     ],
     [
      89.708,
      26.704
     ],
     [
      89.709,
      26.705
     ],
     [
      89.71,
      26.705
     ],
     [
      89.71,
      26.706
     ],
     [
      89.711,
      26.706
     ],
     [
      89.711,
      26.706
     ],
     [
      89.712,
      26.707
     ],
     [
      89.712,
      26.707
     ],
     [
      89.712,
      26.707
     ],
     [
      89.713,
      26.707
     ],
     [
      89.713,
      26.707
     ],
     [
      89.713,
      26.708
     ],
     [
      89.714,
      26.708
     ],
     [
      89.714,
      26.708
     ],
     [
      89.715,
      26.708
     ],
     [
      89.715,
      26.709
     ],
     [
      89.715,
      26.709
     ],
     [
      89.716,
      26.709
     ],
     [
      89.716,
      26.709
     ],
     [
      89.717,
      26.709
     ],
     [
      89.717,
      26.71
     ],
     [
      89.717,
      26.71
     ],
     [
      89.718,
      26.71
     ],
     [
      89.718,
      26.71
     ],
     [
      89.719,
      26.71
     ],
     [
      89.719,
      26.71
     ],
     [
      89.719,
      26.711
     ],
     [
      89.72,
      26.711
     ],
     [
      89.72,
      26.711
     ],
     [
      89.72,
      26.711
     ],
     [
      89.721,
      26.711
     ],
     [
      89.721,
      26.711
     ],
     [
      89.721,
      26.711
     ],
     [
      89.722,
      26.711
     ],
     [
      89.722,
      26.711
     ],
     [
      89.722,
      26.712
     ],
     [
      89.723,
      26.712
     ],
     [
      89.723,
      26.712
     ],
     [
      89.724,
      26.712
     ],
     [
      89.725,
      26.712
     ],
     [
      89.725,
      26.712
     ],
     [
      89.726,
      26.713
     ],
     [
      89.727,
      26.713
     ],
     [
      89.728,
      26.713
     ],
     [
      89.728,
      26.713
     ],
     [
      89.729,
      26.713
     ],
     [
      89.73,
      26.713
     ],
     [
      89.731,
      26.714
     ],
     [
      89.732,
      26.714
     ],
     [
      89.732,
      26.714
     ],
     [
      89.733,
      26.714
     ],
     [
      89.734,
      26.714
     ],
     [
      89.735,
      26.714
     ],
     [
      89.735,
      26.714
     ],
     [
      89.736,
      26.714
     ],
     [
      89.737,
      26.715
     ],
     [
      89.738,
      26.715
     ],
     [
      89.739,
      26.715
     ],
     [
      89.741,
      26.715
     ],
     [
      89.743,
      26.715
     ],
     [
      89.747,
      26.716
     ],
     [
      89.749,
      26.716
     ],
     [
      89.75,
      26.716
     ],
     [
      89.751,
      26.716
     ],
     [
      89.752,
      26.717
     ],
     [
      89.754,
      26.717
     ],
     [
      89.755,
      26.717
     ],
     [
      89.757,
      26.717
     ],
     [
      89.76,
      26.718
     ],
     [
      89.762,
      26.718
     ],
     [
      89.765,
      26.719
     ],
     [
      89.768,
      26.719
     ],
     [
      89.77,
      26.719
     ],
     [
      89.773,
      26.72
     ],
     [
      89.776,
      26.72
     ],
     [
      89.778,
      26.72
     ],
     [
      89.781,
      26.721
     ],
     [
      89.784,
      26.721
     ],
     [
      89.786,
      26.721
     ],
     [
      89.789,
      26.721
     ],
     [
      89.792,
      26.722
     ],
     [
      89.795,
      26.722
     ],
     [
      89.797,
      26.722
     ],
     [
      89.8,
      26.722
     ],
     [
      89.803,
      26.723
     ],
     [
      89.806,
      26.723
     ],
     [
      89.809,
      26.723
     ],
     [
      89.812,
      26.723
     ],
     [
      89.815,
      26.723
     ],
     [
      89.818,
      26.724
     ],
     [
      89.821,
      26.724
     ],
     [
      89.824,
      26.724
     ],
     [
      89.827,
      26.724
     ],
     [
      89.83,
      26.724
     ],
     [
      89.833,
      26.724
     ],
     [
      89.836,
      26.724
     ],
     [
      89.839,
      26.724
     ],
     [
      89.842,
      26.725
     ],
     [
      89.845,
      26.725
     ],
     [
      89.848,
      26.725
     ],
     [
      89.851,
      26.725
     ],
     [
      89.853,
      26.725
     ],
     [
      89.856,
      26.725
     ],
     [
      89.859,
      26.725
     ],
     [
      89.862,
      26.725
     ],
     [
      89.864,
      26.725
     ],
     [
      89.867,
      26.725
     ],
     [
      89.87,
      26.725
     ],
     [
      89.873,
      26.725
     ],
     [
      89.879,
      26.725
     ],
     [
      89.885,
      26.725
     ],
     [
      89.891,
      26.725
     ],
     [
      89.897,
      26.725
     ],
     [
      89.902,
      26.725
     ],
     [
      89.908,
      26.725
     ],
     [
      89.915,
      26.725
     ],
     [
      89.927,
      26.724
     ],
     [
      89.949,
      26.724
     ],
     [
      89.957,
      26.724
     ],
     [
      89.966,
      26.724
     ],
     [
      89.974,
      26.724
     ],
     [
      89.978,
      26.723
     ],
     [
      89.983,
      26.723
     ],
     [
      89.987,
      26.723
     ],
     [
      89.991,
      26.723
     ],
     [
      89.995,
      26.723
     ],
     [
      89.998,
      26.723
     ],
     [
      90.002,
      26.723
     ],
     [
      90.006,
      26.723
     ],
     [
      90.008,
      26.723
     ],
     [
      90.011,
      26.723
     ],
     [
      90.013,
      26.723
     ],
     [
      90.016,
      26.723
     ],
     [
      90.018,
      26.723
     ],
     [
      90.021,
      26.723
     ],
     [
      90.023,
      26.723
     ],
     [
      90.026,
      26.723
     ],
     [
      90.028,
      26.723
     ],
     [
      90.031,
      26.723
     ],
     [
      90.034,
      26.723
     ],
     [
      90.036,
      26.723
     ],
     [
      90.039,
      26.723
     ],
     [
      90.042,
      26.723
     ],
     [
      90.048,
      26.722
     ],
     [
      90.053,
      26.722
     ],
     [
      90.058,
      26.722
     ],
     [
      90.064,
      26.722
     ],
     [
      90.07,
      26.722
     ],
     [
      90.076,
      26.721
     ],
     [
      90.082,
      26.721
     ],
     [
      90.104,
      26.72
     ],
     [
      90.113,
      26.719
     ],
     [
      90.122,
      26.719
     ],
     [
      90.126,
      26.719
     ],
     [
      90.13,
      26.719
     ],
     [
      90.135,
      26.718
     ],
     [
      90.139,
      26.718
     ],
     [
      90.143,
      26.718
     ],
     [
      90.148,
      26.718
     ],
     [
      90.152,
      26.718
     ],
     [
      90.156,
      26.718
     ],
     [
      90.16,
      26.718
     ],
     [
      90.164,
      26.717
     ],
     [
      90.166,
      26.717
     ],
     [
      90.169,
      26.717
     ],
     [
      90.171,
      26.717
     ],
     [
      90.173,
      26.717
     ],
     [
      90.175,
      26.717
     ],
     [
      90.178,
      26.717
     ],
     [
      90.18,
      26.717
     ],
     [
      90.182,
      26.717
     ],
     [
      90.184,
      26.717
     ],
     [
      90.187,
      26.717
     ],
     [
      90.189,
      26.717
     ],
     [
      90.191,
      26.717
     ],
     [
      90.193,
      26.717
     ],
     [
      90.195,
      26.717
     ],
     [
      90.197,
      26.717
     ],
     [
      90.199,
      26.718
     ],
     [
      90.201,
      26.718
     ],
     [
      90.203,
      26.718
     ],
     [
      90.205,
      26.718
     ],
     [
      90.207,
      26.718
     ],
     [
      90.209,
      26.718
     ],
     [
      90.212,
      26.718
     ],
     [
      90.214,
      26.718
     ],
     [
      90.215,
      26.718
     ],
     [
      90.217,
      26.718
     ],
     [
      90.219,
      26.718
     ],
     [
      90.221,
      26.718
     ],
     [
      90.223,
      26.719
     ],
     [
      90.225,
      26.719
     ],
     [
      90.227,
      26.719
     ],
     [
      90.229,
      26.719
     ],
     [
      90.231,
      26.719
     ],
     [
      90.234,
      26.719
     ],
     [
      90.237,
      26.72
     ],
     [
      90.241,
      26.72
     ],
     [
      90.244,
      26.72
     ],
     [
      90.247,
      26.72
     ],
     [
      90.25,
      26.721
     ],
     [
      90.254,
      26.721
     ],
     [
      90.257,
      26.721
     ],
     [
      90.26,
      26.722
     ],
     [
      90.263,
      26.722
     ],
     [
      90.267,
      26.722
     ],
     [
      90.27,
      26.723
     ],
     [
      90.273,
      26.723
     ],
     [
      90.276,
      26.723
     ],
     [
      90.279,
      26.724
     ],
     [
      90.283,
      26.724
     ],
     [
      90.286,
      26.725
     ],
     [
      90.289,
      26.725
     ],
     [
      90.292,
      26.725
     ],
     [
      90.296,
      26.726
     ],
     [
      90.299,
      26.726
     ],
     [
      90.302,
      26.727
     ],
     [
      90.305,
      26.727
     ],
     [
      90.308,
      26.728
     ],
     [
      90.312,
      26.728
     ],
     [
      90.315,
      26.729
     ],
     [
      90.318,
      26.729
     ],
     [
      90.321,
      26.73
     ],
     [
      90.325,
      26.73
     ],
     [
      90.328,
      26.731
     ],
     [
      90.331,
      26.731
     ],
     [
      90.685,
      26.772
     ],
     [
      90.706,
      26.776
     ],
     [
      90.707,
      26.775
     ],
     [
      90.709,
      26.775
     ],
     [
      90.71,
      26.775
     ],
     [
      90.712,
      26.775
     ],
     [
      90.713,
      26.774
     ],
     [
      90.715,
      26.774
     ],
     [
      90.716,
      26.774
     ],
     [
      90.718,
      26.774
     ],
     [
      90.719,
      26.774
     ],
     [
      90.721,
      26.773
     ],
     [
      90.722,
      26.773
     ],
     [
      90.724,
      26.773
     ],
     [
      90.726,
      26.773
     ],
     [
      90.727,
      26.773
     ],
     [
      90.729,
      26.773
     ],
     [
      90.73,
      26.772
     ],
     [
      90.732,
      26.772
     ],
     [
      90.733,
      26.772
     ],
     [
      90.737,
      26.772
     ],
     [
      90.74,
      26.772
     ],
     [
      90.743,
      26.771
     ],
     [
      90.746,
      26.771
     ],
     [
      90.75,
      26.771
     ],
     [
      90.753,
      26.771
     ],
     [
      90.756,
      26.77
     ],
     [
      90.759,
      26.77
     ],
     [
      90.763,
      26.77
     ],
     [
      90.766,
      26.77
     ],
     [
      90.769,
      26.77
     ],
     [
      90.773,
      26.77
     ],
     [
      90.776,
      26.769
     ],
     [
      90.78,
      26.769
     ],
     [
      90.783,
      26.769
     ],
     [
      90.786,
      26.769
     ],
     [
      90.79,
      26.769
     ],
     [
      90.793,
      26.769
     ],
     [
      90.797,
      26.769
     ],
     [
      90.8,
      26.769
     ],
     [
      90.804,
      26.769
     ],
     [
      90.808,
      26.769
     ],
     [
      90.811,
      26.769
     ],
     [
      90.815,
      26.769
     ],
     [
      90.818,
      26.769
     ],
     [
      90.822,
      26.769
     ],
     [
      90.826,
      26.769
     ],
     [
      90.829,
      26.77
     ],
     [
      90.833,
      26.77
     ],
     [
      90.837,
      26.77
     ],
     [
      90.84,
      26.77
     ],
     [
      90.844,
      26.77
     ],
     [
      90.848,
      26.77
     ],
     [
      90.852,
      26.771
     ],
     [
      90.856,
      26.771
     ],
     [
      90.86,
      26.771
     ],
     [
      90.863,
      26.771
     ],
     [
      90.867,
      26.772
     ],
     [
      90.871,
      26.772
     ],
     [
      90.875,
      26.772
     ],
     [
      90.879,
      26.772
     ],
     [
      90.883,
      26.773
     ],
     [
      90.887,
      26.773
     ],
     [
      90.891,
      26.774
     ],
     [
      90.896,
      26.774
     ],
     [
      90.9,
      26.774
     ],
     [
      90.904,
      26.775
     ],
     [
      90.908,
      26.775
     ],
     [
      90.913,
      26.776
     ],
     [
      90.917,
      26.776
     ],
     [
      90.921,
      26.777
     ],
     [
      90.926,
      26.777
     ],
     [
      90.93,
      26.778
     ],
     [
      90.935,
      26.778
     ],
     [
      90.937,
      26.778
     ],
     [
      90.939,
      26.779
     ],
     [
      90.941,
      26.779
     ],
     [
      90.943,
      26.779
     ],
     [
      90.945,
      26.779
     ],
     [
      90.948,
      26.78
     ],
     [
      90.95,
      26.78
     ],
     [
      90.952,
      26.781
     ],
     [
      90.954,
      26.781
     ],
     [
      90.957,
      26.781
     ],
     [
      90.959,
      26.782
     ],
     [
      90.961,
      26.782
     ],
     [
      90.964,
      26.783
     ],
     [
      90.966,
      26.783
     ],
     [
      90.969,
      26.784
     ],
     [
      90.971,
      26.784
     ],
     [
      90.973,
      26.785
     ],
     [
      90.976,
      26.785
     ],
     [
      90.978,
      26.786
     ],
     [
      90.98,
      26.786
     ],
     [
      90.982,
      26.786
     ],
     [
      90.985,
      26.787
     ],
     [
      90.987,
      26.788
     ],
     [
      90.99,
      26.788
     ],
     [
      90.994,
      26.789
     ],
     [
      90.999,
      26.79
     ],
     [
      91.003,
      26.791
     ],
     [
      91.015,
      26.794
     ],
     [
      91.021,
      26.795
     ],
     [
      91.024,
      26.796
     ],
     [
      91.026,
      26.797
     ],
     [
      91.029,
      26.797
     ],
     [
      91.032,
      26.798
     ],
     [
      91.035,
      26.799
     ],
     [
      91.037,
      26.799
     ],
     [
      91.04,
      26.8
     ],
     [
      91.042,
      26.8
     ],
     [
      91.045,
      26.801
     ],
     [
      91.047,
      26.801
     ],
     [
      91.05,
      26.802
     ],
     [
      91.052,
      26.802
     ],
     [
      91.055,
      26.803
     ],
     [
      91.057,
      26.803
     ],
     [
      91.059,
      26.804
     ],
     [
      91.062,
      26.804
     ],
     [
      91.064,
      26.804
     ],
     [
      91.066,
      26.805
     ],
     [
      91.068,
      26.805
     ],
     [
      91.07,
      26.805
     ],
     [
      91.073,
      26.806
     ],
     [
      91.075,
      26.806
     ],
     [
      91.077,
      26.806
     ],
     [
      91.079,
      26.807
     ],
     [
      91.081,
      26.807
     ],
     [
      91.083,
      26.807
     ],
     [
      91.085,
      26.807
     ],
     [
      91.087,
      26.808
     ],
     [
      91.089,
      26.808
     ],
     [
      91.092,
      26.808
     ],
     [
      91.094,
      26.808
     ],
     [
      91.096,
      26.808
     ],
     [
      91.098,
      26.809
     ],
     [
      91.1,
      26.809
     ],
     [
      91.103,
      26.809
     ],
     [
      91.105,
      26.809
     ],
     [
      91.107,
      26.809
     ],
     [
      91.109,
      26.809
     ],
     [
      91.111,
      26.81
     ],
     [
      91.113,
      26.81
     ],
     [
      91.116,
      26.81
     ],
     [
      91.118,
      26.81
     ],
     [
      91.12,
      26.81
     ],
     [
      91.122,
      26.81
     ],
     [
      91.124,
      26.81
     ],
     [
      91.127,
      26.811
     ],
     [
      91.129,
      26.811
     ],
     [
      91.131,
      26.811
     ],
     [
      91.133,
      26.811
     ],
     [
      91.135,
      26.811
     ],
     [
      91.138,
      26.811
     ],
     [
      91.14,
      26.811
     ],
     [
      91.142,
      26.811
     ],
     [
      91.144,
      26.811
     ],
     [
      91.147,
      26.811
     ],
     [
      91.149,
      26.812
     ],
     [
      91.151,
      26.812
     ],
     [
      91.153,
      26.812
     ],
     [
      91.155,
      26.812
     ],
     [
      91.158,
      26.812
     ],
     [
      91.222,
      26.819
     ],
     [
      91.269,
      26.801
     ],
     [
      91.321,
      26.779
     ],
     [
      91.345,
      26.781
     ],
     [
      91.377,
      26.801
     ],
     [
      91.413,
      26.814
     ],
     [
      91.491,
      26.8
     ],
     [
      91.563,
      26.801
     ],
     [
      91.624,
      26.816
     ],
     [
      91.701,
      26.816
     ],
     [
      91.774,
      26.832
     ],
     [
      91.855,
      26.863
     ],
     [
      91.916,
      26.868
     ],
     [
      91.992,
      26.856
     ],
     [
      92.1,
      26.863
     ],
     [
      92.212,
      26.898
     ],
     [
      92.267,
      26.911
     ],
     [
      92.365,
      26.934
     ],
     [
      92.443,
      26.936
     ],
     [
      92.52,
      26.965
     ],
     [
      92.614,
      26.97
     ],
     [
      92.689,
      26.952
     ],
     [
      92.744,
      26.929
     ],
     [
      92.808,
      26.925
     ],
     [
      92.858,
      26.937
     ],
     [
      92.909,
      26.945
     ],
     [
      92.96,
      26.934
     ],
     [
      93.009,
      26.914
     ],
     [
      93.076,
      26.903
     ],
     [
      93.16,
      26.925
     ],
     [
      93.274,
      26.946
     ],
     [
      93.327,
      26.96
     ],
     [
      93.392,
      26.951
     ],
     [
      93.453,
      26.946
     ],
     [
      93.511,
      26.969
     ],
     [
      93.569,
      26.962
     ],
     [
      93.624,
      26.978
     ],
     [
      93.686,
      27.002
     ],
     [
      93.745,
      27.04
     ],
     [
      93.809,
      27.064
     ],
     [
      93.837,
      27.095
     ],
     [
      93.86,
      27.168
     ],
     [
      93.914,
      27.218
     ],
     [
      93.96,
      27.262
     ],
     [
      94.023,
      27.332
     ],
     [
      94.087,
      27.372
     ],
     [
      94.151,
      27.407
     ],
     [
      94.21,
      27.471
     ],
     [
      94.238,
      27.52
     ],
     [
      94.291,
      27.544
     ],
     [
      94.478,
      27.567
     ],
     [
      94.628,
      27.631
     ],
     [
      94.844,
      27.711
     ],
     [
      95.076,
      27.81
     ],
     [
      95.232,
      27.901
     ],
     [
      95.226,
      27.98
     ],
     [
      95.238,
      28.013
     ],
     [
      95.303,
      28.03
     ],
     [
      95.432,
      28.148
     ],
     [
      95.536,
      28.219
     ],
     [
      95.614,
      28.27
     ],
     [
      95.65,
      28.313
     ],
     [
      95.727,
      28.251
     ],
     [
      95.799,
      28.175
     ],
     [
      95.843,
      28.113
     ],
     [
      95.949,
      28.053
     ],
     [
      96.071,
      28.038
     ],
     [
      96.191,
      27.997
     ],
     [
      96.235,
      27.932
     ],
     [
      96.328,
      27.83
     ],
     [
      96.349,
      27.758
     ]
    ]
   }
  }
 ]
}